{"type": "FeatureCollection", "features": [{"geometry": {"type": "Polygon", "coordinates": [[[1067322.12, 5718130.76], [1067322.38, 5718153.66], [1067327.42, 5718153.6], [1067327.81, 5718187.35], [1067333.74, 5718187.27], [1067333.86, 5718196.83], [1067348.54, 5718196.66], [1067347.71, 5718125.38], [1067334.1, 5718125.54], [1067334.15, 5718130.62], [1067322.12, 5718130.76]]]}, "type": "Feature", "properties": {"building": "house", "way_area": 1492.81, "tourism": "hotel", "name": "Hotel Eden", "osm_id": 73073193}}, {"geometry": {"type": "Polygon", "coordinates": [[[1068283.72, 5734871.87], [1068286.45, 5734909.96], [1068295.29, 5734942.61], [1068306.18, 5734973.91], [1068313.65, 5735006.56], [1068315.01, 5735049.42], [1068316.37, 5735102.48], [1068425.89, 5735108.6], [1068513.64, 5735109.97], [1068594.6, 5735116.09], [1068662.62, 5735133.09], [1068732.71, 5735154.18], [1068729.98, 5735072.55], [1068726.58, 5735000.44], [1068727.94, 5734907.25], [1068661.27, 5734703.16], [1068569.43, 5734712.01], [1068541.55, 5734667.78], [1068492.57, 5734580.72], [1068353.79, 5734667.11], [1068355.83, 5734738.54], [1068354.48, 5734799.07], [1068286.45, 5734795.68], [1068285.08, 5734841.93], [1068283.72, 5734871.87]]]}, "type": "Feature", "properties": {"way_area": 180028.0, "tourism": "zoo", "name": "Parco Faunistico Le Cornelle", "osm_id": 58871083}}, {"geometry": {"type": "Polygon", "coordinates": [[[1068784.18, 5742192.48], [1068827.35, 5742247.73], [1068851.81, 5742228.64], [1068808.63, 5742173.38], [1068784.18, 5742192.48]]]}, "type": "Feature", "properties": {"building": "yes", "way_area": 2175.69, "tourism": "hotel", "name": "Castello di Clanezzo", "osm_id": 133599320}}, {"geometry": {"type": "Polygon", "coordinates": [[[1069011.81, 5732296.8], [1069030.1, 5732307.75], [1069045.39, 5732283.46], [1069025.11, 5732271.55], [1069011.81, 5732296.8]]]}, "type": "Feature", "properties": {"building": "yes", "way_area": 641.081, "tourism": "hotel", "name": "Holiday Inn Express Bergamo West", "osm_id": 154841521}}, {"geometry": {"type": "Polygon", "coordinates": [[[1072157.65, 5726645.47], [1072233.45, 5726661.16], [1072238.06, 5726638.91], [1072180.61, 5726627.0], [1072192.65, 5726568.83], [1072174.33, 5726565.02], [1072157.65, 5726645.47]]]}, "type": "Feature", "properties": {"building": "hotel", "way_area": 2872.02, "tourism": "hotel", "name": "Hotel Donizetti", "osm_id": 135159612}}, {"geometry": {"type": "Polygon", "coordinates": [[[1072387.87, 5744157.12], [1072400.29, 5744169.87], [1072421.57, 5744150.73], [1072408.1, 5744139.04], [1072387.87, 5744157.12]]]}, "type": "Feature", "properties": {"way_area": 494.533, "tourism": "alpine_hut", "name": "Prati Parini", "osm_id": 72046248}}, {"geometry": {"type": "Polygon", "coordinates": [[[1072893.75, 5737693.61], [1072902.19, 5737710.94], [1072920.43, 5737702.06], [1072912.01, 5737684.72], [1072893.75, 5737693.61]]]}, "type": "Feature", "properties": {"building": "hotel", "way_area": 391.264, "tourism": "hotel", "name": "Hotel Quarti", "osm_id": 64502136}}, {"geometry": {"type": "Polygon", "coordinates": [[[1073809.48, 5725336.93], [1073828.37, 5725378.78], [1073816.86, 5725383.99], [1073824.37, 5725400.66], [1073863.83, 5725382.86], [1073856.44, 5725366.48], [1073846.7, 5725370.88], [1073827.67, 5725328.71], [1073809.48, 5725336.93]]]}, "type": "Feature", "properties": {"building": "yes", "way_area": 1705.0, "tourism": "hotel", "name": "Art & Hotel", "osm_id": 105579921}}, {"geometry": {"type": "Polygon", "coordinates": [[[1074650.61, 5732299.14], [1074661.13, 5732313.67], [1074677.33, 5732301.93], [1074666.8, 5732287.39], [1074650.61, 5732299.14]]]}, "type": "Feature", "properties": {"building": "yes", "way_area": 359.01, "tourism": "hotel", "name": "Albergo 900", "osm_id": 139113170}}, {"geometry": {"type": "Polygon", "coordinates": [[[1075626.13, 5727647.26], [1075639.74, 5727664.12], [1075655.44, 5727651.45], [1075641.85, 5727634.6], [1075626.13, 5727647.26]]]}, "type": "Feature", "properties": {"addr:housenumber": "4", "building": "yes", "name": "Berg Hotel", "way_area": 437.036, "osm_id": 79505641, "tourism": "hotel"}}, {"geometry": {"type": "Polygon", "coordinates": [[[1075831.28, 5733003.24], [1075838.82, 5733016.22], [1075849.17, 5733010.19], [1075841.63, 5732997.23], [1075831.28, 5733003.24]]]}, "type": "Feature", "properties": {"addr:housenumber": "22", "building": "yes", "name": "Albergo Agnello D'Oro", "way_area": 179.63, "osm_id": 135159027, "tourism": "hotel"}}, {"geometry": {"type": "Polygon", "coordinates": [[[1075867.75, 5733196.34], [1075893.2, 5733306.93], [1075915.44, 5733298.47], [1075914.82, 5733292.65], [1075948.62, 5733287.31], [1075945.36, 5733272.18], [1075950.12, 5733271.29], [1075951.0, 5733278.11], [1075969.99, 5733275.44], [1075968.21, 5733267.13], [1075978.24, 5733265.01], [1075975.92, 5733253.92], [1075984.35, 5733252.51], [1075979.54, 5733225.57], [1075966.48, 5733227.49], [1075971.48, 5733254.17], [1075957.45, 5733256.24], [1075943.52, 5733179.97], [1075918.75, 5733183.7], [1075882.87, 5733189.74], [1075879.22, 5733186.2], [1075872.35, 5733186.57], [1075868.49, 5733190.27], [1075867.75, 5733196.34]], [[1075910.55, 5733263.93], [1075927.24, 5733261.11], [1075930.36, 5733280.36], [1075912.94, 5733283.2], [1075910.55, 5733263.93]], [[1075894.63, 5733205.41], [1075920.65, 5733200.21], [1075927.17, 5733232.75], [1075901.13, 5733237.96], [1075894.63, 5733205.41]]]}, "type": "Feature", "properties": {"way_area": 7571.24, "tourism": "museum", "name": "Museo Storico della Citt\u00e0", "osm_id": -1223620}}, {"geometry": {"type": "Polygon", "coordinates": [[[1076237.71, 5737061.66], [1076262.59, 5737068.81], [1076265.34, 5737059.25], [1076307.23, 5737071.29], [1076319.28, 5737029.37], [1076283.59, 5737019.11], [1076280.76, 5737028.92], [1076249.69, 5737020.01], [1076237.71, 5737061.66]]]}, "type": "Feature", "properties": {"building": "hotel", "way_area": 2957.35, "tourism": "hotel", "name": "Maresana Resort", "osm_id": 71774578}}, {"geometry": {"type": "Polygon", "coordinates": [[[1076285.29, 5743388.49], [1076285.29, 5743396.02], [1076291.71, 5743395.8], [1076292.37, 5743388.49], [1076285.29, 5743388.49]]]}, "type": "Feature", "properties": {"operator": "ANA Gruppo Alpini Sorisole", "way_area": 50.0487, "tourism": "alpine_hut", "name": "Rif. Canto Alto", "osm_id": 152713070}}, {"geometry": {"type": "Polygon", "coordinates": [[[1076317.95, 5730287.86], [1076371.95, 5730312.16], [1076384.44, 5730284.49], [1076346.62, 5730267.28], [1076344.67, 5730272.0], [1076325.8, 5730270.58], [1076317.95, 5730287.86]]]}, "type": "Feature", "properties": {"addr:housenumber": "3/C", "building": "hotel", "name": "Hotel Citt\u00e0 dei Mille", "way_area": 1655.73, "addr:housename": "Hotel Citt\u00e0 dei Mille", "osm_id": 135158623, "tourism": "hotel"}}, {"geometry": {"type": "Polygon", "coordinates": [[[1076362.09, 5731211.79], [1076383.53, 5731239.2], [1076402.14, 5731224.63], [1076380.71, 5731197.22], [1076362.09, 5731211.79]]]}, "type": "Feature", "properties": {"building": "yes", "way_area": 822.545, "tourism": "hostel", "name": "Central Hostel BG", "osm_id": 108296037}}, {"geometry": {"type": "Polygon", "coordinates": [[[1076605.49, 5731097.67], [1076620.49, 5731113.24], [1076616.69, 5731118.37], [1076638.73, 5731135.47], [1076650.31, 5731132.04], [1076655.25, 5731125.4], [1076643.47, 5731113.81], [1076648.03, 5731110.21], [1076619.73, 5731085.7], [1076610.04, 5731090.64], [1076605.49, 5731097.67]]]}, "type": "Feature", "properties": {"building": "yes", "name": "NH Bergamo", "way_area": 1170.76, "osm_id": 134207169, "operator": "NH", "tourism": "hotel"}}, {"geometry": {"type": "Polygon", "coordinates": [[[1076675.24, 5731131.66], [1076689.25, 5731146.38], [1076694.71, 5731140.92], [1076727.47, 5731179.87], [1076716.55, 5731192.92], [1076733.64, 5731205.51], [1076754.78, 5731179.87], [1076695.88, 5731114.34], [1076675.24, 5731131.66]]]}, "type": "Feature", "properties": {"building": "yes", "name": "Hotel Mercure - Palazzo Dolci", "way_area": 2225.95, "osm_id": 134207168, "operator": "Mercure", "tourism": "hotel"}}, {"geometry": {"type": "Polygon", "coordinates": [[[1077061.39, 5733054.01], [1077063.71, 5733071.34], [1077063.5, 5733161.48], [1077079.53, 5733163.36], [1077079.95, 5733149.0], [1077174.05, 5733152.12], [1077175.51, 5733134.0], [1077091.61, 5733131.72], [1077091.61, 5733135.67], [1077078.07, 5733135.05], [1077079.53, 5733090.7], [1077140.53, 5733092.57], [1077139.9, 5733078.21], [1077145.11, 5733077.38], [1077146.15, 5733063.43], [1077138.86, 5733062.59], [1077139.29, 5733051.56], [1077126.15, 5733050.93], [1077125.34, 5733076.76], [1077114.1, 5733076.69], [1077113.84, 5733073.46], [1077110.6, 5733073.71], [1077110.6, 5733069.62], [1077093.29, 5733069.28], [1077093.11, 5733072.85], [1077088.85, 5733072.85], [1077088.85, 5733075.42], [1077079.12, 5733075.5], [1077079.38, 5733050.17], [1077069.49, 5733049.07], [1077061.39, 5733054.01]]]}, "type": "Feature", "properties": {"building": "museum", "way_area": 4934.64, "tourism": "museum", "name": "Accademia Carrara", "osm_id": 88702482}}, {"geometry": {"type": "Polygon", "coordinates": [[[1077111.49, 5732974.02], [1077134.73, 5732981.71], [1077209.56, 5733021.48], [1077213.88, 5733004.74], [1077200.5, 5732998.44], [1077201.87, 5732996.67], [1077178.05, 5732982.09], [1077176.08, 5732983.87], [1077165.45, 5732973.43], [1077162.88, 5732974.61], [1077152.26, 5732965.56], [1077160.73, 5732960.63], [1077163.48, 5732961.81], [1077166.44, 5732961.62], [1077168.21, 5732959.25], [1077167.81, 5732954.53], [1077178.45, 5732948.03], [1077182.98, 5732926.17], [1077171.15, 5732922.63], [1077166.04, 5732942.13], [1077150.49, 5732953.54], [1077125.87, 5732945.08], [1077111.49, 5732974.02]]]}, "type": "Feature", "properties": {"building": "museum", "way_area": 3026.91, "tourism": "museum", "name": "GAMEC", "osm_id": 88216887}}, {"geometry": {"type": "Polygon", "coordinates": [[[1077132.0, 5736951.77], [1077141.57, 5736989.68], [1077170.37, 5736982.4], [1077166.24, 5736966.03], [1077148.86, 5736970.41], [1077143.43, 5736948.88], [1077132.0, 5736951.77]]]}, "type": "Feature", "properties": {"building": "yes", "way_area": 763.532, "tourism": "information", "name": "Centro Parco Maresana - Ca della Matta", "osm_id": 60366416}}, {"geometry": {"type": "Polygon", "coordinates": [[[1077184.35, 5732955.6], [1077186.87, 5732956.7], [1077190.03, 5732959.06], [1077191.29, 5732961.26], [1077193.02, 5732964.41], [1077208.31, 5732960.79], [1077206.87, 5732954.34], [1077203.57, 5732949.29], [1077197.89, 5732944.57], [1077190.03, 5732941.09], [1077185.77, 5732940.93], [1077184.35, 5732955.6]]]}, "type": "Feature", "properties": {"building": "museum", "way_area": 365.731, "tourism": "museum", "name": "GAMEC", "osm_id": 88216884}}, {"geometry": {"type": "Polygon", "coordinates": [[[1078276.59, 5735352.4], [1078301.63, 5735359.01], [1078312.23, 5735318.99], [1078287.18, 5735312.36], [1078284.87, 5735321.11], [1078276.59, 5735352.4]]]}, "type": "Feature", "properties": {"addr:housenumber": "1", "building": "yes", "name": "Nuovo Ostello di Bergamo", "way_area": 1072.61, "osm_id": 135159028, "tourism": "hostel"}}, {"geometry": {"type": "Polygon", "coordinates": [[[1079510.93, 5726661.02], [1079527.21, 5726723.11], [1079609.6, 5726701.49], [1079593.3, 5726639.4], [1079510.93, 5726661.02]]]}, "type": "Feature", "properties": {"addr:housenumber": "75", "building": "hotel", "name": "nH Hoteles", "way_area": 5467.16, "osm_id": 42398405, "tourism": "hotel"}}, {"geometry": {"type": "Polygon", "coordinates": [[[1080389.68, 5730881.2], [1080405.33, 5730922.11], [1080559.26, 5730863.23], [1080543.6, 5730822.34], [1080389.68, 5730881.2]]]}, "type": "Feature", "properties": {"addr:housenumber": "154", "building": "hotel", "name": "UNA Hotel Bergamo", "way_area": 7217.14, "osm_id": 80591932, "tourism": "hotel"}}, {"geometry": {"type": "Polygon", "coordinates": [[[1085534.86, 5735066.62], [1085541.62, 5735078.19], [1085561.48, 5735066.91], [1085554.62, 5735055.33], [1085534.86, 5735066.62]]]}, "type": "Feature", "properties": {"way_area": 306.152, "tourism": "picnic_site", "name": "Pra dela Fola", "osm_id": 152477511}}, {"geometry": {"type": "Polygon", "coordinates": [[[1086347.89, 5744865.91], [1086361.9, 5744872.92], [1086366.03, 5744863.44], [1086351.2, 5744855.62], [1086347.89, 5744865.91]]]}, "type": "Feature", "properties": {"way_area": 170.125, "tourism": "alpine_hut", "osm_id": 76191890}}, {"geometry": {"type": "Point", "coordinates": [1070793.53, 5736628.24]}, "type": "Feature", "properties": {"tourism": "picnic_site", "osm_id": 737840492}}, {"geometry": {"type": "Point", "coordinates": [1071119.99, 5736040.92]}, "type": "Feature", "properties": {"tourism": "picnic_site", "name": "Madonna della Castagna", "osm_id": 1239962056}}, {"geometry": {"type": "Point", "coordinates": [1074005.0, 5735915.8]}, "type": "Feature", "properties": {"tourism": "picnic_site", "osm_id": 767618128}}, {"geometry": {"type": "Point", "coordinates": [1074284.39, 5733859.67]}, "type": "Feature", "properties": {"tourism": "viewpoint", "osm_id": 658022486}}, {"geometry": {"type": "Point", "coordinates": [1074291.09, 5733696.4]}, "type": "Feature", "properties": {"tourism": "viewpoint", "osm_id": 658022443}}, {"geometry": {"type": "Point", "coordinates": [1075018.04, 5723302.21]}, "type": "Feature", "properties": {"tourism": "hotel", "name": "GHP Gran Hotel del Parco", "osm_id": 473175384}}, {"geometry": {"type": "Point", "coordinates": [1075025.64, 5733061.77]}, "type": "Feature", "properties": {"tourism": "viewpoint", "osm_id": 344333445}}, {"geometry": {"type": "Point", "coordinates": [1075133.54, 5733720.06]}, "type": "Feature", "properties": {"tourism": "attraction", "name": "Orto Botanico", "osm_id": 1026345448}}, {"geometry": {"type": "Point", "coordinates": [1075142.96, 5731379.84]}, "type": "Feature", "properties": {"tourism": "picnic_site", "osm_id": 1643642875}}, {"geometry": {"type": "Point", "coordinates": [1075313.48, 5733321.22]}, "type": "Feature", "properties": {"tourism": "museum", "name": "Museo Civico di Scienze Naturali \"E. Caffi\"", "osm_id": 410112985}}, {"geometry": {"type": "Point", "coordinates": [1075323.3, 5733348.03]}, "type": "Feature", "properties": {"tourism": "museum", "name": "Museo Civico Archeologico", "osm_id": 410113578}}, {"geometry": {"type": "Point", "coordinates": [1075773.99, 5727098.06]}, "type": "Feature", "properties": {"tourism": "picnic_site", "osm_id": 949871584}}, {"geometry": {"type": "Point", "coordinates": [1075803.85, 5727072.54]}, "type": "Feature", "properties": {"tourism": "picnic_site", "osm_id": 949870949}}, {"geometry": {"type": "Point", "coordinates": [1076002.33, 5717080.65]}, "type": "Feature", "properties": {"tourism": "museum", "name": "Museo Storico Militare", "osm_id": 652598848}}, {"geometry": {"type": "Point", "coordinates": [1076046.5, 5733041.1]}, "type": "Feature", "properties": {"tourism": "museum", "name": "Museo del Risorgimento", "osm_id": 369339442}}, {"geometry": {"type": "Point", "coordinates": [1076160.58, 5732108.08]}, "type": "Feature", "properties": {"tourism": "hotel", "name": "Hotel Excelsior San Marco", "osm_id": 1476262978}}, {"geometry": {"type": "Point", "coordinates": [1076188.71, 5734259.94]}, "type": "Feature", "properties": {"tourism": "picnic_site", "osm_id": 1237036651}}, {"geometry": {"type": "Point", "coordinates": [1076256.17, 5734223.91]}, "type": "Feature", "properties": {"tourism": "picnic_site", "osm_id": 1237036662}}, {"geometry": {"type": "Point", "coordinates": [1076288.71, 5731487.15]}, "type": "Feature", "properties": {"tourism": "artwork", "osm_id": 1242830551}}, {"geometry": {"type": "Point", "coordinates": [1076447.79, 5731552.83]}, "type": "Feature", "properties": {"tourism": "artwork", "name": "Monumento al Partigiano", "osm_id": 922050689}}, {"geometry": {"type": "Point", "coordinates": [1076535.31, 5731426.54]}, "type": "Feature", "properties": {"tourism": "hotel", "name": "Hotel Cappello D'Oro", "osm_id": 1476262972}}, {"geometry": {"type": "Point", "coordinates": [1076564.7, 5726886.59]}, "type": "Feature", "properties": {"tourism": "guest_house", "name": "Bed & Fly", "osm_id": 908781554}}, {"geometry": {"type": "Point", "coordinates": [1077060.32, 5729414.34]}, "type": "Feature", "properties": {"addr:housenumber": "35", "tourism": "hotel", "name": "Cristallo Palace Star Hotels", "osm_id": 538850057}}, {"geometry": {"type": "Point", "coordinates": [1077430.89, 5737455.44]}, "type": "Feature", "properties": {"tourism": "information", "name": "Parco dei Colli di Bergamo", "osm_id": 853174184}}, {"geometry": {"type": "Point", "coordinates": [1078502.83, 5733776.98]}, "type": "Feature", "properties": {"tourism": "theme_park", "osm_id": 1662277826}}, {"geometry": {"type": "Point", "coordinates": [1078527.12, 5741548.49]}, "type": "Feature", "properties": {"tourism": "information", "ref": "532", "osm_id": 964869486}}, {"geometry": {"type": "Point", "coordinates": [1078836.58, 5741454.6]}, "type": "Feature", "properties": {"tourism": "information", "ref": "532", "osm_id": 964869439}}, {"geometry": {"type": "Point", "coordinates": [1078845.23, 5741341.48]}, "type": "Feature", "properties": {"tourism": "information", "ref": "532; 540", "osm_id": 964869310}}, {"geometry": {"type": "Point", "coordinates": [1078965.28, 5741469.89]}, "type": "Feature", "properties": {"tourism": "information", "ref": "540", "osm_id": 964869423}}, {"geometry": {"type": "Point", "coordinates": [1081534.27, 5744198.37]}, "type": "Feature", "properties": {"natural": "peak", "ele": "1134", "tourism": "viewpoint", "name": "Filaressa", "osm_id": 1655045632}}, {"geometry": {"type": "Point", "coordinates": [1081625.17, 5744933.97]}, "type": "Feature", "properties": {"natural": "peak", "ele": "1195", "tourism": "viewpoint", "name": "Costone", "osm_id": 1655045627}}, {"geometry": {"type": "Point", "coordinates": [1083207.99, 5724869.41]}, "type": "Feature", "properties": {"tourism": "information", "osm_id": 882619416}}, {"geometry": {"type": "Point", "coordinates": [1083215.34, 5737815.28]}, "type": "Feature", "properties": {"tourism": "museum", "name": "Museo d'Arte Sacra San Martino", "osm_id": 1623456840}}, {"geometry": {"type": "Point", "coordinates": [1083216.98, 5725299.31]}, "type": "Feature", "properties": {"tourism": "picnic_site", "osm_id": 1574722932}}, {"geometry": {"type": "Point", "coordinates": [1083320.24, 5724891.89]}, "type": "Feature", "properties": {"tourism": "picnic_site", "osm_id": 880643053}}, {"geometry": {"type": "Point", "coordinates": [1084841.09, 5721227.66]}, "type": "Feature", "properties": {"tourism": "picnic_site", "osm_id": 687344533}}, {"geometry": {"type": "Point", "coordinates": [1085053.95, 5739907.46]}, "type": "Feature", "properties": {"tourism": "information", "osm_id": 1669134521}}, {"geometry": {"type": "Point", "coordinates": [1085135.04, 5739839.89]}, "type": "Feature", "properties": {"tourism": "viewpoint", "osm_id": 854329537}}]}