[{"streets": {"type": "FeatureCollection", "features": [{"geometry": {"type": "Point", "coordinates": [1068834.5185013423, 5738169.7776506245]}, "type": "Feature", "id": null, "properties": {"z_order": -10, "layer": "-1", "bicycle": "designated", "name": "Strada Comunale della Merletta", "tunnel": "no", "municipality": "Alme", "width": "3", "osm_id": 59780719, "foot": "designated", "highway": "path"}}, {"geometry": {"type": "Point", "coordinates": [1069126.19, 5738369.38]}, "type": "Feature", "id": null, "properties": {"z_order": 0, "bicycle": "designated", "name": "Strada Comunale della Merletta", "municipality": "Alme", "width": "3", "osm_id": 59780723, "foot": "designated", "highway": "cycleway"}}, {"geometry": {"type": "Point", "coordinates": [1069400.42, 5738813.67]}, "type": "Feature", "id": null, "properties": {"z_order": 3, "bicycle": "designated", "name": "Strada Comunale della Merletta", "municipality": "Alme", "width": "3", "osm_id": 280273358, "foot": "designated", "highway": "residential"}}, {"geometry": {"type": "Point", "coordinates": [1069473.73, 5738268.55]}, "type": "Feature", "id": null, "properties": {"z_order": 3, "name": "Via Alessandro Volta", "municipality": "Alme", "surface": "asphalt", "osm_id": 201952401, "highway": "residential"}}, {"geometry": {"type": "Point", "coordinates": [1069495.0, 5738071.28]}, "type": "Feature", "id": null, "properties": {"z_order": 3, "municipality": "Alme", "name": "Via Luigi Galvani", "highway": "residential", "osm_id": 29888911}}, {"geometry": {"type": "Point", "coordinates": [1069505.51, 5737991.79]}, "type": "Feature", "id": null, "properties": {"z_order": 3, "municipality": "Alme", "name": "Via Thomas Edison", "highway": "residential", "osm_id": 219907116}}]}, "municipality": "Alme"}, {"streets": {"type": "FeatureCollection", "features": [{"geometry": {"type": "Point", "coordinates": [1064897.02, 5738073.86]}, "type": "Feature", "id": null, "properties": {"z_order": 3, "name": "Piazza 4 Novembre", "municipality": "Barzana", "surface": "asphalt", "osm_id": 258831050, "highway": "unclassified"}}, {"geometry": {"type": "Point", "coordinates": [1065158.71, 5738609.41]}, "type": "Feature", "id": null, "properties": {"z_order": 3, "name": "Via Albarida", "municipality": "Barzana", "surface": "asphalt", "osm_id": 53129562, "highway": "residential"}}, {"geometry": {"type": "Point", "coordinates": [1065031.64, 5738524.83]}, "type": "Feature", "id": null, "properties": {"z_order": 3, "name": "Via Albarida", "municipality": "Barzana", "surface": "asphalt", "osm_id": 183252291, "highway": "unclassified"}}, {"geometry": {"type": "Point", "coordinates": [1064808.6, 5738516.22]}, "type": "Feature", "id": null, "properties": {"z_order": 3, "name": "Via Alessandro Manzoni", "municipality": "Barzana", "surface": "asphalt", "osm_id": 258826538, "highway": "unclassified"}}, {"geometry": {"type": "Point", "coordinates": [1065100.22, 5737111.44]}, "type": "Feature", "id": null, "properties": {"z_order": 3, "name": "Via Arzenate", "municipality": "Barzana", "surface": "asphalt", "osm_id": 258828337, "highway": "unclassified"}}, {"geometry": {"type": "Point", "coordinates": [1065232.44, 5738079.87]}, "type": "Feature", "id": null, "properties": {"z_order": 3, "municipality": "Barzana", "name": "Via Casavoglio", "highway": "unclassified", "osm_id": 258829177}}, {"geometry": {"type": "Point", "coordinates": [1065036.87, 5737838.84]}, "type": "Feature", "id": null, "properties": {"z_order": 3, "name": "Via Dante", "municipality": "Barzana", "surface": "asphalt", "osm_id": 258826539, "highway": "unclassified"}}, {"geometry": {"type": "Point", "coordinates": [1065563.179424378, 5738250.884422521]}, "type": "Feature", "id": null, "properties": {"z_order": 3, "name": "Via Dante Alighieri", "oneway": "no", "municipality": "Barzana", "surface": "asphalt", "osm_id": 258826535, "highway": "unclassified"}}, {"geometry": {"type": "Point", "coordinates": [1066318.2673694731, 5737140.732111289]}, "type": "Feature", "id": null, "properties": {"z_order": 3, "name": "Via De Cono'", "municipality": "Barzana", "surface": "asphalt", "osm_id": 192061343, "highway": "unclassified"}}, {"geometry": {"type": "Point", "coordinates": [1064973.66, 5737622.95]}, "type": "Feature", "id": null, "properties": {"z_order": 3, "municipality": "Barzana", "name": "Via Don Angelo Algisi", "highway": "unclassified", "osm_id": 258828730}}, {"geometry": {"type": "Point", "coordinates": [1065359.12, 5738108.92]}, "type": "Feature", "id": null, "properties": {"z_order": 3, "name": "Via Gaetano Donizzetti", "oneway": "no", "municipality": "Barzana", "surface": "asphalt", "osm_id": 258791522, "highway": "unclassified"}}, {"geometry": {"type": "Point", "coordinates": [1065201.98, 5738211.74]}, "type": "Feature", "id": null, "properties": {"z_order": 3, "name": "Via Giuseppe Garibaldi", "municipality": "Barzana", "surface": "asphalt", "osm_id": 183252288, "highway": "unclassified"}}, {"geometry": {"type": "Point", "coordinates": [1065475.57, 5737546.73]}, "type": "Feature", "id": null, "properties": {"z_order": 3, "name": "Via Giuseppe Verdi", "municipality": "Barzana", "surface": "asphalt", "osm_id": 265636277, "highway": "unclassified"}}, {"geometry": {"type": "Point", "coordinates": [1064851.39, 5737529.14]}, "type": "Feature", "id": null, "properties": {"z_order": 3, "name": "Via Guglielmo Marconi", "municipality": "Barzana", "surface": "asphalt", "osm_id": 258826536, "highway": "unclassified"}}, {"geometry": {"type": "Point", "coordinates": [1065235.42, 5737508.58]}, "type": "Feature", "id": null, "properties": {"z_order": 3, "municipality": "Barzana", "name": "Via Mazzini", "highway": "unclassified", "osm_id": 225619495}}, {"geometry": {"type": "Point", "coordinates": [1064766.35, 5738050.77]}, "type": "Feature", "id": null, "properties": {"z_order": 3, "municipality": "Barzana", "name": "Via Monte Grappa", "highway": "unclassified", "osm_id": 258828335}}, {"geometry": {"type": "Point", "coordinates": [1065038.07, 5737986.09]}, "type": "Feature", "id": null, "properties": {"z_order": 3, "name": "Via Papa Giovanni XXIII", "municipality": "Barzana", "surface": "asphalt", "osm_id": 151617241, "highway": "unclassified"}}, {"geometry": {"type": "Point", "coordinates": [1065987.81, 5737002.07]}, "type": "Feature", "id": null, "properties": {"z_order": 3, "municipality": "Barzana", "name": "Via Pietro Ruggeri da Stabello", "highway": "residential", "osm_id": 192061344}}, {"geometry": {"type": "Point", "coordinates": [1065672.78, 5736551.82]}, "type": "Feature", "id": null, "properties": {"z_order": 0, "municipality": "Barzana", "name": "Via San Pietro", "highway": "track", "osm_id": 258835869}}, {"geometry": {"type": "Point", "coordinates": [1065550.25, 5736903.46]}, "type": "Feature", "id": null, "properties": {"z_order": 3, "name": "Via San Pietro", "municipality": "Barzana", "surface": "asphalt", "osm_id": 192060597, "highway": "unclassified"}}, {"geometry": {"type": "Point", "coordinates": [1065176.23, 5737787.34]}, "type": "Feature", "id": null, "properties": {"z_order": 3, "name": "Via San Rocco", "municipality": "Barzana", "surface": "asphalt", "osm_id": 53129563, "highway": "unclassified"}}, {"geometry": {"type": "Point", "coordinates": [1065814.19, 5737107.8]}, "type": "Feature", "id": null, "properties": {"z_order": 3, "name": "Via Sorte", "municipality": "Barzana", "surface": "asphalt", "osm_id": 192060593, "highway": "unclassified"}}]}, "municipality": "Barzana"}, {"streets": {"type": "FeatureCollection", "features": [{"geometry": {"type": "Point", "coordinates": [1066731.13, 5735417.15]}, "type": "Feature", "id": null, "properties": {"z_order": 3, "municipality": "Brembate di Sopra", "name": "Piazza Trieste", "highway": "residential", "osm_id": 248275223}}, {"geometry": {"type": "Point", "coordinates": [1067317.41, 5734336.2]}, "type": "Feature", "id": null, "properties": {"z_order": 23, "bridge": "yes", "layer": "1", "name": "Ponte di Briolo", "municipality": "Valbrembo", "osm_id": 30537282, "highway": "unclassified"}}, {"geometry": {"type": "Point", "coordinates": [1067129.22, 5735792.73]}, "type": "Feature", "id": null, "properties": {"z_order": 3, "municipality": "Brembate di Sopra", "name": "Via 24 Maggio", "highway": "unclassified", "osm_id": 30538805}}, {"geometry": {"type": "Point", "coordinates": [1066645.41, 5735556.31]}, "type": "Feature", "id": null, "properties": {"z_order": 6, "name": "Via 4 Novembre", "municipality": "Brembate di Sopra", "osm_id": 220054976, "ref": "SP174", "highway": "secondary"}}, {"geometry": {"type": "Point", "coordinates": [1066925.91, 5735595.82]}, "type": "Feature", "id": null, "properties": {"z_order": 4, "name": "Via 4 Novembre", "municipality": "Brembate di Sopra", "osm_id": 31691779, "ref": "SP173", "highway": "tertiary"}}, {"geometry": {"type": "Point", "coordinates": [1067074.83, 5733823.38]}, "type": "Feature", "id": null, "properties": {"z_order": 3, "name": "Via Antonio Vivaldi", "municipality": "Brembate di Sopra", "surface": "asphalt", "osm_id": 183107603, "highway": "residential"}}, {"geometry": {"type": "Point", "coordinates": [1067375.55, 5735476.14]}, "type": "Feature", "id": null, "properties": {"z_order": 3, "municipality": "Brembate di Sopra", "name": "Via Brembo", "highway": "residential", "osm_id": 32531877}}, {"geometry": {"type": "Point", "coordinates": [1066638.76, 5735528.01]}, "type": "Feature", "id": null, "properties": {"z_order": 6, "junction": "roundabout", "name": "Via Bruno Locatelli", "municipality": "Brembate di Sopra", "osm_id": 30533764, "ref": "SP174", "highway": "secondary"}}, {"geometry": {"type": "Point", "coordinates": [1066618.89, 5735476.42]}, "type": "Feature", "id": null, "properties": {"z_order": 3, "municipality": "Brembate di Sopra", "name": "Via Bruno Locatelli", "highway": "unclassified", "osm_id": 220054979}}, {"geometry": {"type": "Point", "coordinates": [1066269.64, 5734173.23]}, "type": "Feature", "id": null, "properties": {"z_order": 3, "name": "Via Caduti Dispersi Aeronautica", "municipality": "Brembate di Sopra", "surface": "asphalt", "osm_id": 30533086, "highway": "unclassified"}}, {"geometry": {"type": "Point", "coordinates": [1066622.87, 5735426.22]}, "type": "Feature", "id": null, "properties": {"z_order": 0, "bicycle": "yes", "name": "Via Caduti sul Lavoro", "municipality": "Brembate di Sopra", "access": "no", "osm_id": 248275224, "highway": "pedestrian"}}, {"geometry": {"type": "Point", "coordinates": [1066763.89, 5735978.71]}, "type": "Feature", "id": null, "properties": {"z_order": 3, "municipality": "Brembate di Sopra", "name": "Via Damiano Chiesa", "highway": "unclassified", "osm_id": 31693184}}, {"geometry": {"type": "Point", "coordinates": [1066425.69, 5735036.67]}, "type": "Feature", "id": null, "properties": {"z_order": 3, "name": "Via Don Giuseppe Gotti", "municipality": "Brembate di Sopra", "surface": "asphalt", "osm_id": 31694342, "highway": "unclassified"}}, {"geometry": {"type": "Point", "coordinates": [1066267.55, 5734788.98]}, "type": "Feature", "id": null, "properties": {"z_order": 3, "name": "Via Enrico Rampinelli", "municipality": "Brembate di Sopra", "surface": "asphalt", "osm_id": 136432652, "highway": "residential"}}, {"geometry": {"type": "Point", "coordinates": [1066998.9, 5735561.64]}, "type": "Feature", "id": null, "properties": {"z_order": 0, "municipality": "Brembate di Sopra", "name": "Via Fontana", "highway": "steps", "osm_id": 32675682}}, {"geometry": {"type": "Point", "coordinates": [1067077.87, 5735531.57]}, "type": "Feature", "id": null, "properties": {"z_order": 0, "municipality": "Brembate di Sopra", "name": "Via Fontana", "highway": "footway", "osm_id": 32531884}}, {"geometry": {"type": "Point", "coordinates": [1067155.64, 5735602.78]}, "type": "Feature", "id": null, "properties": {"z_order": 3, "municipality": "Brembate di Sopra", "name": "Via Fontana", "highway": "residential", "osm_id": 32531882}}, {"geometry": {"type": "Point", "coordinates": [1067099.16, 5733430.81]}, "type": "Feature", "id": null, "properties": {"z_order": 4, "name": "Via Gaetano Donizetti", "municipality": "Brembate di Sopra", "surface": "asphalt", "osm_id": 220054967, "ref": "SP173", "highway": "tertiary"}}, {"geometry": {"type": "Point", "coordinates": [1067138.48, 5733207.18]}, "type": "Feature", "id": null, "properties": {"z_order": 3, "name": "Via Gaetano Donizetti", "municipality": "Brembate di Sopra", "surface": "asphalt", "osm_id": 31695395, "highway": "residential"}}, {"geometry": {"type": "Point", "coordinates": [1067181.59, 5734828.65]}, "type": "Feature", "id": null, "properties": {"z_order": 3, "municipality": "Brembate di Sopra", "name": "Via Giacomo Puccini", "highway": "residential", "osm_id": 32532355}}, {"geometry": {"type": "Point", "coordinates": [1066253.95, 5733909.11]}, "type": "Feature", "id": null, "properties": {"z_order": 3, "name": "Via Giulio Terzi di Sant'Agata", "municipality": "Brembate di Sopra", "surface": "asphalt", "osm_id": 30539248, "highway": "unclassified"}}, {"geometry": {"type": "Point", "coordinates": [1066780.36, 5734943.99]}, "type": "Feature", "id": null, "properties": {"z_order": 3, "municipality": "Brembate di Sopra", "name": "Via Giuseppe Garibaldi", "highway": "unclassified", "osm_id": 113444638}}, {"geometry": {"type": "Point", "coordinates": [1067056.62, 5734402.02]}, "type": "Feature", "id": null, "properties": {"z_order": 3, "municipality": "Brembate di Sopra", "name": "Via Giuseppe Verdi", "highway": "unclassified", "osm_id": 30538343}}, {"geometry": {"type": "Point", "coordinates": [1065243.61, 5734388.87]}, "type": "Feature", "id": null, "properties": {"z_order": 3, "name": "Via Guglielmo Marconi", "municipality": "Brembate di Sopra", "surface": "asphalt", "osm_id": 171864475, "highway": "unclassified"}}, {"geometry": {"type": "Point", "coordinates": [1065321.89, 5734291.56]}, "type": "Feature", "id": null, "properties": {"z_order": 0, "name": "Via Ingegner Gianni Caproni", "municipality": "Brembate di Sopra", "surface": "asphalt", "osm_id": 171379153, "highway": "service"}}, {"geometry": {"type": "Point", "coordinates": [1066380.34, 5735510.74]}, "type": "Feature", "id": null, "properties": {"z_order": 3, "name": "Via Ingegner Gianni Caproni", "municipality": "Brembate di Sopra", "surface": "asphalt", "osm_id": 31694341, "highway": "residential"}}, {"geometry": {"type": "Point", "coordinates": [1065847.48, 5734087.42]}, "type": "Feature", "id": null, "properties": {"z_order": 3, "name": "Via Lesina", "municipality": "Brembate di Sopra", "surface": "asphalt", "osm_id": 30532974, "highway": "unclassified"}}, {"geometry": {"type": "Point", "coordinates": [1066844.39, 5734157.29]}, "type": "Feature", "id": null, "properties": {"z_order": 3, "municipality": "Brembate di Sopra", "name": "Via Malpensata", "highway": "residential", "osm_id": 130659795}}, {"geometry": {"type": "Point", "coordinates": [1066077.07, 5734415.65]}, "type": "Feature", "id": null, "properties": {"z_order": 3, "name": "Via Tresolzio", "municipality": "Brembate di Sopra", "surface": "asphalt", "osm_id": 31694495, "highway": "unclassified"}}, {"geometry": {"type": "Point", "coordinates": [1066464.71, 5735906.17]}, "type": "Feature", "id": null, "properties": {"z_order": 3, "municipality": "Brembate di Sopra", "name": "Via dei Garofani", "highway": "unclassified", "osm_id": 113444640}}, {"geometry": {"type": "Point", "coordinates": [1066473.46, 5735853.52]}, "type": "Feature", "id": null, "properties": {"z_order": 3, "municipality": "Brembate di Sopra", "name": "Via dei Giacinti", "highway": "residential", "osm_id": 31693193}}]}, "municipality": "Brembate di Sopra"}, {"streets": {"type": "FeatureCollection", "features": [{"geometry": {"type": "Point", "coordinates": [1069237.72, 5730789.53]}, "type": "Feature", "id": null, "properties": {"z_order": 3, "municipality": "Curno", "name": "Via 2 giugno", "highway": "unclassified", "osm_id": 52021140}}, {"geometry": {"type": "Point", "coordinates": [1069136.78, 5731034.18]}, "type": "Feature", "id": null, "properties": {"z_order": 3, "municipality": "Curno", "name": "Via 25 aprile", "highway": "residential", "osm_id": 52021142}}, {"geometry": {"type": "Point", "coordinates": [1069553.83, 5730665.5]}, "type": "Feature", "id": null, "properties": {"z_order": 3, "municipality": "Curno", "name": "Via 4 novembre", "highway": "unclassified", "osm_id": 29986166}}, {"geometry": {"type": "Point", "coordinates": [1068444.57, 5731254.36]}, "type": "Feature", "id": null, "properties": {"z_order": 3, "municipality": "Curno", "name": "Via Abruzzi", "highway": "unclassified", "osm_id": 195977576}}, {"geometry": {"type": "Point", "coordinates": [1069321.4027537243, 5731442.984417564]}, "type": "Feature", "id": null, "properties": {"z_order": 4, "name": "Via Alfredo Piatti", "municipality": "Mozzo", "surface": "asphalt", "osm_id": 52021125, "highway": "tertiary"}}, {"geometry": {"type": "Point", "coordinates": [1069160.21, 5729220.35]}, "type": "Feature", "id": null, "properties": {"z_order": 3, "municipality": "Curno", "name": "Via Battista Rota", "highway": "unclassified", "osm_id": 42231913}}, {"geometry": {"type": "Point", "coordinates": [1069395.45, 5731420.88]}, "type": "Feature", "id": null, "properties": {"z_order": 3, "municipality": "Mozzo", "name": "Via Boito", "highway": "residential", "osm_id": 218688152}}, {"geometry": {"type": "Point", "coordinates": [1067880.48, 5730296.69]}, "type": "Feature", "id": null, "properties": {"z_order": 3, "municipality": "Curno", "name": "Via Brembo", "highway": "residential", "osm_id": 219351309}}, {"geometry": {"type": "Point", "coordinates": [1067901.77, 5730303.68]}, "type": "Feature", "id": null, "properties": {"z_order": 3, "name": "Via Brembo", "municipality": "Curno", "surface": "asphalt", "osm_id": 195977577, "highway": "unclassified"}}, {"geometry": {"type": "Point", "coordinates": [1069388.07, 5730037.75]}, "type": "Feature", "id": null, "properties": {"z_order": 3, "municipality": "Curno", "name": "Via Carlinga", "highway": "unclassified", "osm_id": 52021131}}, {"geometry": {"type": "Point", "coordinates": [1069115.59, 5730811.89]}, "type": "Feature", "id": null, "properties": {"z_order": 3, "municipality": "Curno", "name": "Via Cavour", "highway": "unclassified", "osm_id": 52021135}}, {"geometry": {"type": "Point", "coordinates": [1069115.59, 5730811.89]}, "type": "Feature", "id": null, "properties": {"z_order": 3, "municipality": "Curno", "name": "Via Cavour", "highway": "residential", "osm_id": 52021136}}, {"geometry": {"type": "Point", "coordinates": [1069514.65, 5730975.23]}, "type": "Feature", "id": null, "properties": {"z_order": 3, "name": "Via Cesare Battisti", "osm_id": 24405395, "municipality": "Curno", "oneway": "yes", "highway": "unclassified"}}, {"geometry": {"type": "Point", "coordinates": [1069480.71, 5731395.29]}, "type": "Feature", "id": null, "properties": {"z_order": 3, "municipality": "Mozzo", "name": "Via Crocette", "highway": "residential", "osm_id": 37634023}}, {"geometry": {"type": "Point", "coordinates": [1068806.55, 5729207.0]}, "type": "Feature", "id": null, "properties": {"z_order": 8, "name": "Via Dalmine", "oneway": "yes", "municipality": "Curno", "surface": "asphalt", "osm_id": 31531284, "ref": "SS470", "highway": "trunk"}}, {"geometry": {"type": "Point", "coordinates": [1068851.24, 5729439.96]}, "type": "Feature", "id": null, "properties": {"z_order": 7, "name": "Via Dalmine", "municipality": "Curno", "surface": "asphalt", "osm_id": 37634039, "ref": "SS470", "highway": "primary"}}, {"geometry": {"type": "Point", "coordinates": [1068317.39, 5731707.17]}, "type": "Feature", "id": null, "properties": {"z_order": 3, "name": "Via Dorotina", "oneway": "yes", "municipality": "Mozzo", "surface": "asphalt", "osm_id": 31782769, "highway": "unclassified"}}, {"geometry": {"type": "Point", "coordinates": [1068664.65, 5731655.74]}, "type": "Feature", "id": null, "properties": {"z_order": 4, "name": "Via Dorotina", "municipality": "Curno", "surface": "asphalt", "osm_id": 32533352, "highway": "tertiary"}}, {"geometry": {"type": "Point", "coordinates": [1069206.04, 5731468.47]}, "type": "Feature", "id": null, "properties": {"z_order": 3, "municipality": "Curno", "name": "Via Dorotina", "highway": "residential", "osm_id": 52021150}}, {"geometry": {"type": "Point", "coordinates": [1069408.92, 5730831.73]}, "type": "Feature", "id": null, "properties": {"z_order": 3, "municipality": "Curno", "name": "Via Edmondo De Amicis", "highway": "unclassified", "osm_id": 24405394}}, {"geometry": {"type": "Point", "coordinates": [1068214.27, 5730735.66]}, "type": "Feature", "id": null, "properties": {"z_order": 3, "municipality": "Curno", "name": "Via Emilia", "highway": "unclassified", "osm_id": 26112444}}, {"geometry": {"type": "Point", "coordinates": [1068368.26, 5730822.85]}, "type": "Feature", "id": null, "properties": {"z_order": 3, "municipality": "Curno", "name": "Via Emilia", "highway": "residential", "osm_id": 51980458}}, {"geometry": {"type": "Point", "coordinates": [1068533.35, 5729571.19]}, "type": "Feature", "id": null, "properties": {"z_order": 3, "municipality": "Curno", "name": "Via Enrico Fermi", "highway": "unclassified", "osm_id": 42231910}}, {"geometry": {"type": "Point", "coordinates": [1068846.044079381, 5731604.184696503]}, "type": "Feature", "id": null, "properties": {"z_order": 3, "name": "Via Gabriele D'Annunzio", "municipality": "Mozzo", "surface": "asphalt", "osm_id": 51980449, "highway": "residential"}}, {"geometry": {"type": "Point", "coordinates": [1069027.77, 5730660.16]}, "type": "Feature", "id": null, "properties": {"z_order": 3, "municipality": "Curno", "name": "Via Giovanni Pascoli", "highway": "residential", "osm_id": 52021134}}, {"geometry": {"type": "Point", "coordinates": [1069194.41, 5731089.65]}, "type": "Feature", "id": null, "properties": {"z_order": 3, "municipality": "Curno", "name": "Via Giuseppe Garibaldi", "highway": "residential", "osm_id": 52021139}}, {"geometry": {"type": "Point", "coordinates": [1069373.5, 5730979.79]}, "type": "Feature", "id": null, "properties": {"z_order": 3, "municipality": "Curno", "name": "Via Giuseppe Mazzini", "highway": "residential", "osm_id": 52021137}}, {"geometry": {"type": "Point", "coordinates": [1069279.3, 5731452.82]}, "type": "Feature", "id": null, "properties": {"z_order": 3, "municipality": "Curno", "name": "Via Giuseppe Verdi", "highway": "unclassified", "osm_id": 195409214}}, {"geometry": {"type": "Point", "coordinates": [1068326.64, 5731080.65]}, "type": "Feature", "id": null, "properties": {"z_order": 3, "municipality": "Curno", "name": "Via Lazio", "highway": "unclassified", "osm_id": 26112448}}, {"geometry": {"type": "Point", "coordinates": [1068350.94, 5731708.04]}, "type": "Feature", "id": null, "properties": {"z_order": 7, "layer": "0", "name": "Via Lecco", "municipality": "Curno", "surface": "asphalt", "osm_id": 172292992, "ref": "SPexSS342", "highway": "primary"}}, {"geometry": {"type": "Point", "coordinates": [1069443.35, 5729747.14]}, "type": "Feature", "id": null, "properties": {"z_order": 3, "name": "Via Lega Lombarda", "osm_id": 32476297, "municipality": "Curno", "oneway": "yes", "highway": "unclassified"}}, {"geometry": {"type": "Point", "coordinates": [1068085.527645542, 5731690.771462767]}, "type": "Feature", "id": null, "properties": {"z_order": 3, "name": "Via Liguria", "osm_id": 31783039, "municipality": "Mozzo", "oneway": "-1", "highway": "unclassified"}}, {"geometry": {"type": "Point", "coordinates": [1068466.07, 5731471.13]}, "type": "Feature", "id": null, "properties": {"z_order": 3, "name": "Via Lombardia", "oneway": "yes", "municipality": "Curno", "surface": "asphalt", "osm_id": 190512439, "highway": "unclassified"}}, {"geometry": {"type": "Point", "coordinates": [1067882.64, 5730472.07]}, "type": "Feature", "id": null, "properties": {"z_order": 3, "name": "Via Lungobrembo", "municipality": "Curno", "surface": "asphalt", "osm_id": 219351312, "highway": "unclassified"}}, {"geometry": {"type": "Point", "coordinates": [1068846.08, 5731478.85]}, "type": "Feature", "id": null, "properties": {"z_order": 7, "name": "Via Marche", "oneway": "yes", "municipality": "Curno", "surface": "asphalt", "osm_id": 23708975, "highway": "primary_link"}}, {"geometry": {"type": "Point", "coordinates": [1068274.38, 5731471.72]}, "type": "Feature", "id": null, "properties": {"z_order": 3, "municipality": "Curno", "name": "Via Marigolda", "highway": "unclassified", "osm_id": 190512435}}, {"geometry": {"type": "Point", "coordinates": [1068091.1964534593, 5731728.601928023]}, "type": "Feature", "id": null, "properties": {"z_order": 3, "name": "Via Merena", "municipality": "Curno", "surface": "asphalt", "osm_id": 196106815, "highway": "unclassified"}}, {"geometry": {"type": "Point", "coordinates": [1069424.04, 5730035.75]}, "type": "Feature", "id": null, "properties": {"z_order": 3, "municipality": "Curno", "name": "Via Mohandas Karamchand Gandhi", "highway": "unclassified", "osm_id": 18950163}}, {"geometry": {"type": "Point", "coordinates": [1068953.15, 5730305.26]}, "type": "Feature", "id": null, "properties": {"z_order": 3, "name": "Via P. Sala", "osm_id": 52021133, "municipality": "Curno", "oneway": "yes", "highway": "unclassified"}}, {"geometry": {"type": "Point", "coordinates": [1068265.21, 5731683.09]}, "type": "Feature", "id": null, "properties": {"z_order": 3, "name": "Via Piemonte", "municipality": "Curno", "surface": "asphalt", "osm_id": 51980467, "highway": "residential"}}, {"geometry": {"type": "Point", "coordinates": [1068049.5, 5730821.97]}, "type": "Feature", "id": null, "properties": {"z_order": 3, "municipality": "Curno", "name": "Via Puglia", "highway": "residential", "osm_id": 51980455}}, {"geometry": {"type": "Point", "coordinates": [1069217.54, 5731194.72]}, "type": "Feature", "id": null, "properties": {"z_order": 3, "municipality": "Curno", "name": "Via Repubblica", "highway": "residential", "osm_id": 52021149}}, {"geometry": {"type": "Point", "coordinates": [1069336.76, 5731123.58]}, "type": "Feature", "id": null, "properties": {"z_order": 3, "municipality": "Curno", "name": "Via Repubblica", "highway": "unclassified", "osm_id": 24405396}}, {"geometry": {"type": "Point", "coordinates": [1068438.93, 5731700.31]}, "type": "Feature", "id": null, "properties": {"z_order": 3, "name": "Via Silvio Pellico", "municipality": "Mozzo", "surface": "asphalt", "osm_id": 51980460, "highway": "residential"}}, {"geometry": {"type": "Point", "coordinates": [1069067.52, 5729774.22]}, "type": "Feature", "id": null, "properties": {"z_order": 3, "name": "Via Tarcisio Finassi", "oneway": "yes", "municipality": "Curno", "surface": "asphalt", "osm_id": 23708965, "highway": "unclassified"}}, {"geometry": {"type": "Point", "coordinates": [1069232.93, 5730568.47]}, "type": "Feature", "id": null, "properties": {"z_order": 3, "municipality": "Curno", "name": "Via Torquato Tasso", "highway": "residential", "osm_id": 39143080}}, {"geometry": {"type": "Point", "coordinates": [1068300.23, 5731543.65]}, "type": "Feature", "id": null, "properties": {"z_order": 3, "name": "Via Toscana", "oneway": "yes", "municipality": "Curno", "surface": "asphalt", "osm_id": 51980466, "highway": "residential"}}, {"geometry": {"type": "Point", "coordinates": [1068382.85, 5731506.47]}, "type": "Feature", "id": null, "properties": {"z_order": 3, "name": "Via Toscana", "municipality": "Curno", "surface": "asphalt", "osm_id": 51980465, "highway": "unclassified"}}, {"geometry": {"type": "Point", "coordinates": [1069378.38, 5731236.26]}, "type": "Feature", "id": null, "properties": {"z_order": 3, "municipality": "Curno", "name": "Via Tullio Buelli", "highway": "unclassified", "osm_id": 195958680}}, {"geometry": {"type": "Point", "coordinates": [1069403.66, 5731203.79]}, "type": "Feature", "id": null, "properties": {"z_order": 3, "municipality": "Curno", "name": "Via Tullio Buelli", "highway": "residential", "osm_id": 52021152}}, {"geometry": {"type": "Point", "coordinates": [1068184.73, 5730626.61]}, "type": "Feature", "id": null, "properties": {"z_order": 3, "municipality": "Curno", "name": "Via Veneto", "highway": "residential", "osm_id": 51980456}}, {"geometry": {"type": "Point", "coordinates": [1069258.68, 5730748.25]}, "type": "Feature", "id": null, "properties": {"z_order": 3, "municipality": "Curno", "name": "Via dei Caduti", "highway": "unclassified", "osm_id": 22937830}}, {"geometry": {"type": "Point", "coordinates": [1069150.76, 5731039.01]}, "type": "Feature", "id": null, "properties": {"z_order": 3, "municipality": "Curno", "name": "Via della Resistenza", "highway": "unclassified", "osm_id": 52021128}}, {"geometry": {"type": "Point", "coordinates": [1069181.81, 5731099.79]}, "type": "Feature", "id": null, "properties": {"z_order": 3, "municipality": "Curno", "name": "Via della Resistenza", "highway": "residential", "osm_id": 52021126}}]}, "municipality": "Curno"}, {"streets": {"type": "FeatureCollection", "features": [{"geometry": {"type": "Point", "coordinates": [1069754.25, 5722515.53]}, "type": "Feature", "id": null, "properties": {"z_order": 9, "name": "Autostrada Serenissima", "oneway": "yes", "osm_id": 25540360, "municipality": "Dalmine", "toll": "yes", "ref": "A4", "highway": "motorway"}}, {"geometry": {"type": "Point", "coordinates": [1069065.5, 5724507.77]}, "type": "Feature", "id": null, "properties": {"z_order": 3, "municipality": "Dalmine", "name": "Largo Europa", "highway": "unclassified", "osm_id": 25888297}}, {"geometry": {"type": "Point", "coordinates": [1068825.67, 5724051.25]}, "type": "Feature", "id": null, "properties": {"z_order": 4, "junction": "roundabout", "name": "Piazza Libert\u00e0", "municipality": "Dalmine", "osm_id": 194469984, "highway": "tertiary"}}, {"geometry": {"type": "Point", "coordinates": [1069306.69, 5724802.52]}, "type": "Feature", "id": null, "properties": {"z_order": 3, "municipality": "Dalmine", "name": "Piazza Vittorio Emanuele", "highway": "unclassified", "osm_id": 25908524}}, {"geometry": {"type": "Point", "coordinates": [1068693.01, 5723927.94]}, "type": "Feature", "id": null, "properties": {"z_order": 3, "name": "Piazzale Privato Risorgimento", "osm_id": 289550167, "municipality": "Dalmine", "oneway": "yes", "highway": "unclassified"}}, {"geometry": {"type": "Point", "coordinates": [1069177.37, 5723849.78]}, "type": "Feature", "id": null, "properties": {"z_order": 3, "municipality": "Dalmine", "name": "Piazzale dell'industria", "highway": "unclassified", "osm_id": 194139038}}, {"geometry": {"type": "Point", "coordinates": [1068978.33, 5724937.62]}, "type": "Feature", "id": null, "properties": {"z_order": 3, "name": "Via 25 aprile", "municipality": "Dalmine", "surface": "asphalt", "osm_id": 37671572, "highway": "unclassified"}}, {"geometry": {"type": "Point", "coordinates": [1067896.2, 5723862.84]}, "type": "Feature", "id": null, "properties": {"z_order": 3, "municipality": "Dalmine", "name": "Via 4 novembre", "highway": "unclassified", "osm_id": 25825404}}, {"geometry": {"type": "Point", "coordinates": [1068410.81, 5724028.48]}, "type": "Feature", "id": null, "properties": {"z_order": 3, "name": "Via Albert Einstein", "municipality": "Dalmine", "surface": "asphalt", "osm_id": 25762670, "highway": "unclassified"}}, {"geometry": {"type": "Point", "coordinates": [1069104.85, 5724102.76]}, "type": "Feature", "id": null, "properties": {"z_order": 3, "municipality": "Dalmine", "name": "Via Alessandro Manzoni", "highway": "unclassified", "osm_id": 194479511}}, {"geometry": {"type": "Point", "coordinates": [1067703.9920292133, 5721739.969252748]}, "type": "Feature", "id": null, "properties": {"z_order": 3, "municipality": "Dalmine", "name": "Via Antonio Vivaldi", "highway": "unclassified", "osm_id": 66389467}}, {"geometry": {"type": "Point", "coordinates": [1068094.3921543183, 5721630.483502922]}, "type": "Feature", "id": null, "properties": {"z_order": 3, "municipality": "Dalmine", "name": "Via Arturo Toscanini", "highway": "residential", "osm_id": 89584677}}, {"geometry": {"type": "Point", "coordinates": [1067744.68, 5723596.84]}, "type": "Feature", "id": null, "properties": {"z_order": 3, "name": "Via Asiago", "municipality": "Dalmine", "surface": "asphalt", "osm_id": 25825354, "highway": "unclassified"}}, {"geometry": {"type": "Point", "coordinates": [1068532.15, 5724290.16]}, "type": "Feature", "id": null, "properties": {"z_order": 3, "municipality": "Dalmine", "name": "Via Bachelet", "highway": "unclassified", "osm_id": 25762772}}, {"geometry": {"type": "Point", "coordinates": [1069359.6, 5724547.1]}, "type": "Feature", "id": null, "properties": {"z_order": 3, "municipality": "Dalmine", "name": "Via Bartolomeo Colleoni", "highway": "unclassified", "osm_id": 25680400}}, {"geometry": {"type": "Point", "coordinates": [1067340.65, 5724698.66]}, "type": "Feature", "id": null, "properties": {"z_order": 3, "name": "Via Beato Angelico", "municipality": "Dalmine", "surface": "asphalt", "osm_id": 52155726, "highway": "residential"}}, {"geometry": {"type": "Point", "coordinates": [1067758.41, 5723756.79]}, "type": "Feature", "id": null, "properties": {"z_order": 3, "name": "Via Belluno", "municipality": "Dalmine", "surface": "asphalt", "osm_id": 51776845, "highway": "residential"}}, {"geometry": {"type": "Point", "coordinates": [1067322.33, 5724585.58]}, "type": "Feature", "id": null, "properties": {"z_order": 3, "name": "Via Bernareggi", "municipality": "Dalmine", "surface": "asphalt", "osm_id": 182133266, "highway": "residential"}}, {"geometry": {"type": "Point", "coordinates": [1069343.87, 5723822.85]}, "type": "Feature", "id": null, "properties": {"z_order": 3, "name": "Via Bosco Frati", "municipality": "Dalmine", "surface": "asphalt", "osm_id": 25735854, "highway": "unclassified"}}, {"geometry": {"type": "Point", "coordinates": [1067421.86, 5724146.28]}, "type": "Feature", "id": null, "properties": {"z_order": 3, "name": "Via Brembo", "municipality": "Dalmine", "surface": "asphalt", "osm_id": 207300065, "highway": "unclassified"}}, {"geometry": {"type": "Point", "coordinates": [1067097.06, 5723398.65]}, "type": "Feature", "id": null, "properties": {"z_order": 3, "municipality": "Dalmine", "name": "Via C. Beccaria", "highway": "unclassified", "osm_id": 52155668}}, {"geometry": {"type": "Point", "coordinates": [1067858.45, 5724446.19]}, "type": "Feature", "id": null, "properties": {"z_order": 3, "name": "Via Carnia", "municipality": "Dalmine", "surface": "asphalt", "osm_id": 52155732, "highway": "residential"}}, {"geometry": {"type": "Point", "coordinates": [1067097.31, 5724113.43]}, "type": "Feature", "id": null, "properties": {"z_order": 3, "name": "Via Cascina Bianca", "municipality": "Dalmine", "surface": "asphalt", "osm_id": 51776555, "highway": "unclassified"}}, {"geometry": {"type": "Point", "coordinates": [1068009.06, 5724206.35]}, "type": "Feature", "id": null, "properties": {"z_order": 3, "name": "Via Cascina Colombera", "municipality": "Dalmine", "surface": "asphalt", "osm_id": 52155665, "highway": "residential"}}, {"geometry": {"type": "Point", "coordinates": [1066606.82, 5723539.66]}, "type": "Feature", "id": null, "properties": {"z_order": 3, "name": "Via Cave", "municipality": "Dalmine", "surface": "asphalt", "osm_id": 51776649, "highway": "unclassified"}}, {"geometry": {"type": "Point", "coordinates": [1068442.85, 5723872.65]}, "type": "Feature", "id": null, "properties": {"z_order": 0, "municipality": "Dalmine", "name": "Via Cavour", "highway": "footway", "osm_id": 25762662}}, {"geometry": {"type": "Point", "coordinates": [1068666.94, 5723895.12]}, "type": "Feature", "id": null, "properties": {"z_order": 3, "name": "Via Chiesa Vecchia", "municipality": "Dalmine", "surface": "asphalt", "osm_id": 289550169, "highway": "unclassified"}}, {"geometry": {"type": "Point", "coordinates": [1066484.11, 5723158.15]}, "type": "Feature", "id": null, "properties": {"z_order": 3, "municipality": "Dalmine", "name": "Via Cimaripa", "highway": "unclassified", "osm_id": 52155651}}, {"geometry": {"type": "Point", "coordinates": [1069480.68, 5723998.16]}, "type": "Feature", "id": null, "properties": {"z_order": 3, "municipality": "Dalmine", "name": "Via Cinquantenario", "highway": "unclassified", "osm_id": 25620805}}, {"geometry": {"type": "Point", "coordinates": [1067131.35, 5722157.12]}, "type": "Feature", "id": null, "properties": {"z_order": 3, "municipality": "Dalmine", "name": "Via Colle della Maddalena", "highway": "residential", "osm_id": 114920710}}, {"geometry": {"type": "Point", "coordinates": [1069345.51, 5725530.02]}, "type": "Feature", "id": null, "properties": {"z_order": 3, "name": "Via Confalonieri", "oneway": "no", "municipality": "Dalmine", "surface": "asphalt", "osm_id": 59294062, "highway": "residential"}}, {"geometry": {"type": "Point", "coordinates": [1069409.56, 5724459.23]}, "type": "Feature", "id": null, "properties": {"z_order": 3, "municipality": "Dalmine", "name": "Via Conte Ratti", "highway": "unclassified", "osm_id": 190113362}}, {"geometry": {"type": "Point", "coordinates": [1067280.25, 5722964.89]}, "type": "Feature", "id": null, "properties": {"z_order": 3, "municipality": "Dalmine", "name": "Via Corno Stella", "highway": "unclassified", "osm_id": 52155675}}, {"geometry": {"type": "Point", "coordinates": [1067332.89, 5724073.59]}, "type": "Feature", "id": null, "properties": {"z_order": 3, "municipality": "Dalmine", "name": "Via Custoza", "highway": "unclassified", "osm_id": 51776872}}, {"geometry": {"type": "Point", "coordinates": [1067309.09, 5724356.58]}, "type": "Feature", "id": null, "properties": {"z_order": 3, "name": "Via Damiano Chiesa", "municipality": "Dalmine", "surface": "asphalt", "osm_id": 52155720, "highway": "residential"}}, {"geometry": {"type": "Point", "coordinates": [1069233.89, 5724862.61]}, "type": "Feature", "id": null, "properties": {"z_order": 3, "municipality": "Dalmine", "name": "Via Dante", "highway": "unclassified", "osm_id": 52790164}}, {"geometry": {"type": "Point", "coordinates": [1067424.95, 5724689.89]}, "type": "Feature", "id": null, "properties": {"z_order": 3, "name": "Via Don Botta", "municipality": "Dalmine", "surface": "asphalt", "osm_id": 52155710, "highway": "residential"}}, {"geometry": {"type": "Point", "coordinates": [1069348.0, 5724182.42]}, "type": "Feature", "id": null, "properties": {"z_order": 3, "municipality": "Dalmine", "name": "Via Don G. Rocchi", "highway": "unclassified", "osm_id": 25680389}}, {"geometry": {"type": "Point", "coordinates": [1067340.65, 5724698.66]}, "type": "Feature", "id": null, "properties": {"z_order": 3, "name": "Via Don Piazzolo", "municipality": "Dalmine", "surface": "asphalt", "osm_id": 52155708, "highway": "residential"}}, {"geometry": {"type": "Point", "coordinates": [1069405.63, 5724740.18]}, "type": "Feature", "id": null, "properties": {"z_order": 3, "municipality": "Dalmine", "name": "Via E. Dall'Ovo", "highway": "unclassified", "osm_id": 25908531}}, {"geometry": {"type": "Point", "coordinates": [1069239.64, 5724685.52]}, "type": "Feature", "id": null, "properties": {"z_order": 3, "municipality": "Dalmine", "name": "Via Edmondo De Amicis", "highway": "unclassified", "osm_id": 25888310}}, {"geometry": {"type": "Point", "coordinates": [1067979.9, 5721957.54]}, "type": "Feature", "id": null, "properties": {"z_order": 3, "name": "Via Emilia", "oneway": "no", "municipality": "Dalmine", "surface": "asphalt", "osm_id": 51668931, "highway": "unclassified"}}, {"geometry": {"type": "Point", "coordinates": [1069057.85, 5724350.11]}, "type": "Feature", "id": null, "properties": {"z_order": 3, "municipality": "Dalmine", "name": "Via Enrico Fermi", "highway": "unclassified", "osm_id": 25888285}}, {"geometry": {"type": "Point", "coordinates": [1069124.41, 5725153.05]}, "type": "Feature", "id": null, "properties": {"z_order": 4, "junction": "roundabout", "name": "Via Fabio Filzi", "municipality": "Dalmine", "osm_id": 191104478, "highway": "tertiary"}}, {"geometry": {"type": "Point", "coordinates": [1067393.54, 5724425.55]}, "type": "Feature", "id": null, "properties": {"z_order": 3, "name": "Via Francesco Baracca", "municipality": "Dalmine", "surface": "asphalt", "osm_id": 52155719, "highway": "residential"}}, {"geometry": {"type": "Point", "coordinates": [1069475.29, 5725494.78]}, "type": "Feature", "id": null, "properties": {"z_order": 3, "name": "Via Fratelli Cairoli", "oneway": "no", "municipality": "Dalmine", "surface": "asphalt", "osm_id": 204188594, "highway": "residential"}}, {"geometry": {"type": "Point", "coordinates": [1066585.9, 5723013.64]}, "type": "Feature", "id": null, "properties": {"z_order": 3, "municipality": "Dalmine", "name": "Via G. Casati", "highway": "unclassified", "osm_id": 192717116}}, {"geometry": {"type": "Point", "coordinates": [1066120.77, 5723719.96]}, "type": "Feature", "id": null, "properties": {"z_order": 3, "municipality": "Dalmine", "name": "Via G. Terzi", "highway": "unclassified", "osm_id": 156723964}}, {"geometry": {"type": "Point", "coordinates": [1066628.46, 5722730.36]}, "type": "Feature", "id": null, "properties": {"z_order": 3, "name": "Via G. da Verrazzo", "municipality": "Dalmine", "surface": "asphalt", "osm_id": 189952055, "highway": "residential"}}, {"geometry": {"type": "Point", "coordinates": [1067625.78, 5721812.45]}, "type": "Feature", "id": null, "properties": {"z_order": 3, "municipality": "Dalmine", "name": "Via Gaetano Donizetti", "highway": "unclassified", "osm_id": 52155658}}, {"geometry": {"type": "Point", "coordinates": [1068082.42, 5724036.95]}, "type": "Feature", "id": null, "properties": {"z_order": 3, "name": "Via Galvani", "municipality": "Dalmine", "surface": "asphalt", "osm_id": 52155690, "highway": "residential"}}, {"geometry": {"type": "Point", "coordinates": [1069123.52, 5724169.23]}, "type": "Feature", "id": null, "properties": {"z_order": 3, "municipality": "Dalmine", "name": "Via Giacomo Puccini", "highway": "unclassified", "osm_id": 25762877}}, {"geometry": {"type": "Point", "coordinates": [1067765.5, 5724131.25]}, "type": "Feature", "id": null, "properties": {"z_order": 3, "name": "Via Giovanni Segantini", "oneway": "yes", "municipality": "Dalmine", "surface": "asphalt", "osm_id": 207300066, "highway": "unclassified"}}, {"geometry": {"type": "Point", "coordinates": [1067133.95, 5723108.46]}, "type": "Feature", "id": null, "properties": {"z_order": 3, "name": "Via Giovanni XXIII", "municipality": "Dalmine", "surface": "asphalt", "osm_id": 51776679, "highway": "unclassified"}}, {"geometry": {"type": "Point", "coordinates": [1069089.33, 5724264.94]}, "type": "Feature", "id": null, "properties": {"z_order": 3, "municipality": "Dalmine", "name": "Via Giuseppe Garibaldi", "highway": "unclassified", "osm_id": 25888246}}, {"geometry": {"type": "Point", "coordinates": [1068781.51, 5723883.91]}, "type": "Feature", "id": null, "properties": {"z_order": 3, "name": "Via Giuseppe Mazzini", "municipality": "Dalmine", "surface": "asphalt", "osm_id": 25762653, "highway": "unclassified"}}, {"geometry": {"type": "Point", "coordinates": [1067641.7, 5724526.94]}, "type": "Feature", "id": null, "properties": {"z_order": 3, "name": "Via Giuseppe Verdi", "municipality": "Dalmine", "surface": "asphalt", "osm_id": 182133268, "highway": "unclassified"}}, {"geometry": {"type": "Point", "coordinates": [1066854.45, 5722801.56]}, "type": "Feature", "id": null, "properties": {"z_order": 3, "name": "Via Italia", "municipality": "Dalmine", "surface": "asphalt", "osm_id": 189783519, "highway": "unclassified"}}, {"geometry": {"type": "Point", "coordinates": [1067633.23, 5724665.6]}, "type": "Feature", "id": null, "properties": {"z_order": 3, "name": "Via Keplero", "municipality": "Dalmine", "surface": "asphalt", "osm_id": 52155704, "highway": "residential"}}, {"geometry": {"type": "Point", "coordinates": [1066768.43, 5722340.13]}, "type": "Feature", "id": null, "properties": {"z_order": 3, "name": "Via Liguria", "municipality": "Dalmine", "surface": "asphalt", "osm_id": 189952053, "highway": "unclassified"}}, {"geometry": {"type": "Point", "coordinates": [1067982.52, 5722614.66]}, "type": "Feature", "id": null, "properties": {"z_order": 3, "name": "Via Lombardia", "municipality": "Dalmine", "surface": "asphalt", "osm_id": 51668922, "highway": "unclassified"}}, {"geometry": {"type": "Point", "coordinates": [1068101.25, 5724338.95]}, "type": "Feature", "id": null, "properties": {"z_order": 3, "name": "Via Luigi Cherubini", "municipality": "Dalmine", "surface": "asphalt", "osm_id": 85644065, "highway": "residential"}}, {"geometry": {"type": "Point", "coordinates": [1067832.75, 5723881.31]}, "type": "Feature", "id": null, "properties": {"z_order": 3, "name": "Via M. Garbagna", "municipality": "Dalmine", "surface": "asphalt", "osm_id": 51776494, "highway": "unclassified"}}, {"geometry": {"type": "Point", "coordinates": [1068374.83, 5724244.79]}, "type": "Feature", "id": null, "properties": {"z_order": 3, "municipality": "Dalmine", "name": "Via Maestri del Lavoro", "highway": "unclassified", "osm_id": 25762754}}, {"geometry": {"type": "Point", "coordinates": [1067950.25, 5721848.11]}, "type": "Feature", "id": null, "properties": {"z_order": 3, "name": "Via Marche", "osm_id": 66389464, "municipality": "Dalmine", "oneway": "no", "highway": "unclassified"}}, {"geometry": {"type": "Point", "coordinates": [1067389.42, 5724353.62]}, "type": "Feature", "id": null, "properties": {"z_order": 3, "name": "Via Marco Polo", "municipality": "Dalmine", "surface": "asphalt", "osm_id": 51776524, "highway": "residential"}}, {"geometry": {"type": "Point", "coordinates": [1067369.06, 5722870.15]}, "type": "Feature", "id": null, "properties": {"z_order": 3, "name": "Via Mariano", "municipality": "Dalmine", "surface": "asphalt", "osm_id": 189923844, "highway": "unclassified"}}, {"geometry": {"type": "Point", "coordinates": [1068569.34, 5724014.34]}, "type": "Feature", "id": null, "properties": {"z_order": 3, "municipality": "Dalmine", "name": "Via Mario Buttaro", "highway": "unclassified", "osm_id": 190455714}}, {"geometry": {"type": "Point", "coordinates": [1067246.67, 5724527.82]}, "type": "Feature", "id": null, "properties": {"z_order": 3, "name": "Via Martiri di Belfiore", "municipality": "Dalmine", "surface": "asphalt", "osm_id": 52155721, "highway": "residential"}}, {"geometry": {"type": "Point", "coordinates": [1067735.42, 5722806.59]}, "type": "Feature", "id": null, "properties": {"z_order": 3, "municipality": "Dalmine", "name": "Via Montello", "highway": "unclassified", "osm_id": 192717118}}, {"geometry": {"type": "Point", "coordinates": [1067577.45, 5724668.85]}, "type": "Feature", "id": null, "properties": {"z_order": 3, "name": "Via Niccol\u00f2 Copernico", "municipality": "Dalmine", "surface": "asphalt", "osm_id": 52155711, "highway": "residential"}}, {"geometry": {"type": "Point", "coordinates": [1066971.0, 5723543.67]}, "type": "Feature", "id": null, "properties": {"z_order": 3, "name": "Via Olimpiadi", "municipality": "Dalmine", "surface": "asphalt", "osm_id": 88364974, "highway": "unclassified"}}, {"geometry": {"type": "Point", "coordinates": [1067598.68, 5722073.67]}, "type": "Feature", "id": null, "properties": {"z_order": 3, "name": "Via Osio", "municipality": "Dalmine", "surface": "asphalt", "osm_id": 189870842, "highway": "unclassified"}}, {"geometry": {"type": "Point", "coordinates": [1067165.77, 5724472.43]}, "type": "Feature", "id": null, "properties": {"z_order": 3, "name": "Via Padre Lazzaroni", "municipality": "Dalmine", "surface": "asphalt", "osm_id": 51776539, "highway": "residential"}}, {"geometry": {"type": "Point", "coordinates": [1069370.94, 5724848.63]}, "type": "Feature", "id": null, "properties": {"z_order": 3, "municipality": "Dalmine", "name": "Via Padri Allani", "highway": "unclassified", "osm_id": 25908552}}, {"geometry": {"type": "Point", "coordinates": [1067898.48, 5724979.22]}, "type": "Feature", "id": null, "properties": {"z_order": 3, "municipality": "Dalmine", "name": "Via Papa Pio XII", "highway": "unclassified", "osm_id": 25825330}}, {"geometry": {"type": "Point", "coordinates": [1067378.02, 5723557.8]}, "type": "Feature", "id": null, "properties": {"z_order": 3, "name": "Via Pascolo", "municipality": "Dalmine", "surface": "asphalt", "osm_id": 51776732, "highway": "residential"}}, {"geometry": {"type": "Point", "coordinates": [1067337.99, 5722883.29]}, "type": "Feature", "id": null, "properties": {"z_order": 3, "name": "Via Pascolo", "municipality": "Dalmine", "surface": "asphalt", "osm_id": 194139039, "highway": "unclassified"}}, {"geometry": {"type": "Point", "coordinates": [1069582.0, 5724110.77]}, "type": "Feature", "id": null, "properties": {"z_order": 3, "municipality": "Dalmine", "name": "Via Passo San Marco", "highway": "unclassified", "osm_id": 25620871}}, {"geometry": {"type": "Point", "coordinates": [1068660.42, 5723827.2]}, "type": "Feature", "id": null, "properties": {"z_order": 3, "name": "Via Pasubio", "municipality": "Dalmine", "surface": "asphalt", "osm_id": 48964352, "highway": "unclassified"}}, {"geometry": {"type": "Point", "coordinates": [1069403.86, 5725431.28]}, "type": "Feature", "id": null, "properties": {"z_order": 3, "name": "Via Pietro Micca", "oneway": "no", "municipality": "Dalmine", "surface": "asphalt", "osm_id": 52793179, "highway": "residential"}}, {"geometry": {"type": "Point", "coordinates": [1066997.74, 5724576.77]}, "type": "Feature", "id": null, "properties": {"z_order": 3, "name": "Via Pietro Pesenti", "municipality": "Dalmine", "surface": "asphalt", "osm_id": 51776525, "highway": "residential"}}, {"geometry": {"type": "Point", "coordinates": [1067042.87, 5725015.77]}, "type": "Feature", "id": null, "properties": {"z_order": 3, "municipality": "Dalmine", "name": "Via Pietro Pesenti", "highway": "unclassified", "osm_id": 190010633}}, {"geometry": {"type": "Point", "coordinates": [1066713.34, 5722626.65]}, "type": "Feature", "id": null, "properties": {"z_order": 3, "name": "Via Pinosa", "municipality": "Dalmine", "surface": "asphalt", "osm_id": 221433493, "highway": "unclassified"}}, {"geometry": {"type": "Point", "coordinates": [1069348.0, 5724182.42]}, "type": "Feature", "id": null, "properties": {"z_order": 3, "municipality": "Dalmine", "name": "Via Poletti", "highway": "unclassified", "osm_id": 25802374}}, {"geometry": {"type": "Point", "coordinates": [1066954.32, 5722382.64]}, "type": "Feature", "id": null, "properties": {"z_order": 3, "name": "Via Raspalupo", "municipality": "Dalmine", "surface": "asphalt", "osm_id": 65795454, "highway": "unclassified"}}, {"geometry": {"type": "Point", "coordinates": [1067874.67, 5724016.74]}, "type": "Feature", "id": null, "properties": {"z_order": 3, "name": "Via Rovereto", "municipality": "Dalmine", "surface": "asphalt", "osm_id": 25825385, "highway": "unclassified"}}, {"geometry": {"type": "Point", "coordinates": [1067464.15, 5724558.41]}, "type": "Feature", "id": null, "properties": {"z_order": 3, "name": "Via San Francesco D'Assisi", "municipality": "Dalmine", "surface": "asphalt", "osm_id": 52155667, "highway": "residential"}}, {"geometry": {"type": "Point", "coordinates": [1067369.94, 5722415.96]}, "type": "Feature", "id": null, "properties": {"z_order": 3, "municipality": "Dalmine", "name": "Via Sant'Caterina", "highway": "unclassified", "osm_id": 52155677}}, {"geometry": {"type": "Point", "coordinates": [1067122.17, 5723485.58]}, "type": "Feature", "id": null, "properties": {"z_order": 3, "municipality": "Dalmine", "name": "Via Sardegna", "highway": "unclassified", "osm_id": 52155684}}, {"geometry": {"type": "Point", "coordinates": [1066626.79, 5724719.89]}, "type": "Feature", "id": null, "properties": {"z_order": 3, "name": "Via Sertorio", "municipality": "Dalmine", "surface": "asphalt", "osm_id": 52155652, "highway": "unclassified"}}, {"geometry": {"type": "Point", "coordinates": [1069355.32, 5725837.55]}, "type": "Feature", "id": null, "properties": {"z_order": 3, "municipality": "Dalmine", "name": "Via Tito Speri", "highway": "residential", "osm_id": 98058554}}, {"geometry": {"type": "Point", "coordinates": [1067346.66, 5722293.31]}, "type": "Feature", "id": null, "properties": {"z_order": 3, "municipality": "Dalmine", "name": "Via Toscana", "highway": "unclassified", "osm_id": 189832511}}, {"geometry": {"type": "Point", "coordinates": [1066822.06, 5722517.83]}, "type": "Feature", "id": null, "properties": {"z_order": 3, "name": "Via Trentino", "municipality": "Dalmine", "surface": "asphalt", "osm_id": 189952058, "highway": "residential"}}, {"geometry": {"type": "Point", "coordinates": [1067756.72, 5723906.55]}, "type": "Feature", "id": null, "properties": {"z_order": 3, "name": "Via Trieste", "municipality": "Dalmine", "surface": "asphalt", "osm_id": 25825361, "highway": "unclassified"}}, {"geometry": {"type": "Point", "coordinates": [1067702.72, 5722606.06]}, "type": "Feature", "id": null, "properties": {"z_order": 3, "name": "Via Vittorio Emanuele II", "municipality": "Dalmine", "surface": "asphalt", "osm_id": 207300067, "highway": "unclassified"}}, {"geometry": {"type": "Point", "coordinates": [1069053.65, 5723741.23]}, "type": "Feature", "id": null, "properties": {"z_order": 3, "name": "Via Vittorio Veneto", "municipality": "Dalmine", "surface": "asphalt", "osm_id": 25686904, "highway": "unclassified"}}, {"geometry": {"type": "Point", "coordinates": [1066288.32, 5724129.63]}, "type": "Feature", "id": null, "properties": {"z_order": 3, "name": "Via dei Partigiani", "municipality": "Dalmine", "surface": "asphalt", "osm_id": 156423021, "highway": "unclassified"}}, {"geometry": {"type": "Point", "coordinates": [1069257.26, 5723845.91]}, "type": "Feature", "id": null, "properties": {"z_order": 3, "municipality": "Dalmine", "name": "Via del Commercio", "highway": "unclassified", "osm_id": 194139037}}, {"geometry": {"type": "Point", "coordinates": [1068956.63, 5724030.01]}, "type": "Feature", "id": null, "properties": {"z_order": 4, "municipality": "Dalmine", "name": "Viale Antonio Locatelli", "highway": "tertiary", "osm_id": 190455716}}, {"geometry": {"type": "Point", "coordinates": [1068898.48, 5724073.03]}, "type": "Feature", "id": null, "properties": {"z_order": 3, "municipality": "Dalmine", "name": "Viale Antonio Locatelli", "highway": "unclassified", "osm_id": 25762868}}, {"geometry": {"type": "Point", "coordinates": [1068882.76, 5724244.58]}, "type": "Feature", "id": null, "properties": {"z_order": 4, "municipality": "Dalmine", "name": "Viale Betelli", "highway": "tertiary", "osm_id": 194479538}}, {"geometry": {"type": "Point", "coordinates": [1066782.06, 5724275.59]}, "type": "Feature", "id": null, "properties": {"z_order": 3, "name": "Viale Brembo", "municipality": "Dalmine", "surface": "asphalt", "osm_id": 51776875, "highway": "unclassified"}}, {"geometry": {"type": "Point", "coordinates": [1067741.87, 5724091.68]}, "type": "Feature", "id": null, "properties": {"z_order": 3, "junction": "roundabout", "name": "Viale Guglielmo Marconi", "municipality": "Dalmine", "surface": "asphalt", "osm_id": 194470006, "highway": "unclassified"}}, {"geometry": {"type": "Point", "coordinates": [1067219.51, 5722324.07]}, "type": "Feature", "id": null, "properties": {"z_order": 4, "municipality": "Dalmine", "name": "Viale Mariano", "highway": "tertiary", "osm_id": 52155654}}, {"geometry": {"type": "Point", "coordinates": [1068857.01, 5724928.53]}, "type": "Feature", "id": null, "properties": {"z_order": 3, "name": "Viale Mario Buttaro", "oneway": "yes", "municipality": "Dalmine", "surface": "asphalt", "osm_id": 37671570, "highway": "unclassified"}}, {"geometry": {"type": "Point", "coordinates": [1068864.07, 5725545.23]}, "type": "Feature", "id": null, "properties": {"z_order": 3, "junction": "roundabout", "name": "Viale della Rimembranza", "municipality": "Dalmine", "surface": "asphalt", "osm_id": 52789490, "highway": "unclassified"}}, {"geometry": {"type": "Point", "coordinates": [1069052.45, 5725248.06]}, "type": "Feature", "id": null, "properties": {"z_order": 3, "municipality": "Dalmine", "name": "Viale delle Rimembranxe", "highway": "unclassified", "osm_id": 190180075}}, {"geometry": {"type": "Point", "coordinates": [1069725.19, 5726180.36]}, "type": "Feature", "id": null, "properties": {"z_order": 8, "name": "Villa D'Alm\u00e8 - Dalmine", "oneway": "yes", "municipality": "Dalmine", "surface": "asphalt", "cutting": "yes", "osm_id": 191657026, "ref": "SPexSS470dir", "highway": "trunk"}}]}, "municipality": "Dalmine"}, {"streets": {"type": "FeatureCollection", "features": [{"geometry": {"type": "Point", "coordinates": [1069399.41, 5733018.39]}, "type": "Feature", "id": null, "properties": {"z_order": 3, "municipality": "Mozzo", "name": "Passaggio Riolo", "highway": "residential", "osm_id": 199246166}}, {"geometry": {"type": "Point", "coordinates": [1068087.58, 5732134.08]}, "type": "Feature", "id": null, "properties": {"z_order": 27, "bridge": "yes", "layer": "1", "name": "Strada Provinciale ex Strada Statale 342 Briantea", "municipality": "Mozzo", "osm_id": 43709508, "ref": "SPexSS342", "highway": "primary"}}, {"geometry": {"type": "Point", "coordinates": [1069062.64, 5732343.63]}, "type": "Feature", "id": null, "properties": {"z_order": -20, "layer": "-2", "name": "Tombotto", "municipality": "Mozzo", "access": "yes", "osm_id": 154186321, "foot": "designated", "highway": "path"}}, {"geometry": {"type": "Point", "coordinates": [1068814.98, 5733762.59]}, "type": "Feature", "id": null, "properties": {"z_order": 3, "name": "Via A. Mozzi", "municipality": "Mozzo", "surface": "asphalt", "osm_id": 120584280, "highway": "unclassified"}}, {"geometry": {"type": "Point", "coordinates": [1068526.2, 5732287.01]}, "type": "Feature", "id": null, "properties": {"z_order": 3, "name": "Via Alessandro Manzoni", "municipality": "Mozzo", "surface": "asphalt", "osm_id": 135158247, "highway": "residential"}}, {"geometry": {"type": "Point", "coordinates": [1069373.44, 5731657.75]}, "type": "Feature", "id": null, "properties": {"z_order": 4, "name": "Via Alfredo Piatti", "municipality": "Mozzo", "surface": "asphalt", "osm_id": 52021125, "highway": "tertiary"}}, {"geometry": {"type": "Point", "coordinates": [1069193.65, 5732132.3]}, "type": "Feature", "id": null, "properties": {"z_order": 3, "municipality": "Mozzo", "name": "Via Antonio Vivaldi", "highway": "unclassified", "osm_id": 37634030}}, {"geometry": {"type": "Point", "coordinates": [1069413.56, 5731495.93]}, "type": "Feature", "id": null, "properties": {"z_order": 3, "municipality": "Mozzo", "name": "Via Boito", "highway": "residential", "osm_id": 218688152}}, {"geometry": {"type": "Point", "coordinates": [1068930.89, 5733311.35]}, "type": "Feature", "id": null, "properties": {"z_order": 3, "municipality": "Mozzo", "name": "Via Capitani di Mozzo", "highway": "unclassified", "osm_id": 199089046}}, {"geometry": {"type": "Point", "coordinates": [1068374.2, 5731983.56]}, "type": "Feature", "id": null, "properties": {"z_order": 3, "name": "Via Carlo Goldoni", "municipality": "Mozzo", "surface": "asphalt", "osm_id": 135069116, "highway": "residential"}}, {"geometry": {"type": "Point", "coordinates": [1069680.38, 5731337.47]}, "type": "Feature", "id": null, "properties": {"z_order": 3, "municipality": "Mozzo", "name": "Via Crocette", "highway": "residential", "osm_id": 37634023}}, {"geometry": {"type": "Point", "coordinates": [1069296.32, 5732402.04]}, "type": "Feature", "id": null, "properties": {"z_order": 3, "bicycle": "yes", "name": "Via Domenico Cimarosa", "oneway": "no", "municipality": "Mozzo", "surface": "asphalt", "osm_id": 154185311, "foot": "yes", "highway": "residential"}}, {"geometry": {"type": "Point", "coordinates": [1068265.02, 5731705.29]}, "type": "Feature", "id": null, "properties": {"z_order": 3, "name": "Via Dorotina", "oneway": "yes", "municipality": "Mozzo", "surface": "asphalt", "osm_id": 31782769, "highway": "unclassified"}}, {"geometry": {"type": "Point", "coordinates": [1069087.71, 5732385.21]}, "type": "Feature", "id": null, "properties": {"z_order": 3, "municipality": "Mozzo", "name": "Via Fausto Radici", "highway": "unclassified", "osm_id": 51981100}}, {"geometry": {"type": "Point", "coordinates": [1068707.19, 5731736.51]}, "type": "Feature", "id": null, "properties": {"z_order": 3, "name": "Via Francesco Petrarca", "municipality": "Mozzo", "surface": "asphalt", "osm_id": 51980478, "highway": "residential"}}, {"geometry": {"type": "Point", "coordinates": [1068920.87, 5732162.34]}, "type": "Feature", "id": null, "properties": {"z_order": 3, "municipality": "Mozzo", "name": "Via Fratelli Bonacina", "highway": "unclassified", "osm_id": 51980450}}, {"geometry": {"type": "Point", "coordinates": [1068887.16, 5731888.41]}, "type": "Feature", "id": null, "properties": {"z_order": 3, "name": "Via Gabriele D'Annunzio", "municipality": "Mozzo", "surface": "asphalt", "osm_id": 51980449, "highway": "residential"}}, {"geometry": {"type": "Point", "coordinates": [1068716.68, 5731904.41]}, "type": "Feature", "id": null, "properties": {"z_order": 3, "name": "Via Giacomo Leopardi", "municipality": "Mozzo", "surface": "asphalt", "osm_id": 51980475, "highway": "residential"}}, {"geometry": {"type": "Point", "coordinates": [1068788.16, 5731968.8]}, "type": "Feature", "id": null, "properties": {"z_order": 3, "name": "Via Giosu\u00e8 Carducci", "municipality": "Mozzo", "surface": "asphalt", "osm_id": 51980473, "highway": "residential"}}, {"geometry": {"type": "Point", "coordinates": [1068261.16, 5732125.52]}, "type": "Feature", "id": null, "properties": {"z_order": 3, "name": "Via Giovanni Boccaccio", "municipality": "Mozzo", "surface": "asphalt", "osm_id": 133876594, "highway": "residential"}}, {"geometry": {"type": "Point", "coordinates": [1068601.83, 5731974.8]}, "type": "Feature", "id": null, "properties": {"z_order": 3, "name": "Via Giovanni Pascoli", "municipality": "Mozzo", "surface": "asphalt", "osm_id": 51980461, "highway": "residential"}}, {"geometry": {"type": "Point", "coordinates": [1068489.67, 5731948.96]}, "type": "Feature", "id": null, "properties": {"z_order": 3, "name": "Via Giovanni Verga", "municipality": "Mozzo", "surface": "asphalt", "osm_id": 51980472, "highway": "residential"}}, {"geometry": {"type": "Point", "coordinates": [1069176.26, 5731713.13]}, "type": "Feature", "id": null, "properties": {"z_order": 3, "municipality": "Mozzo", "name": "Via Giuseppe Verdi", "highway": "unclassified", "osm_id": 195409213}}, {"geometry": {"type": "Point", "coordinates": [1068108.14, 5732051.79]}, "type": "Feature", "id": null, "properties": {"z_order": 7, "name": "Via Lecco", "municipality": "Mozzo", "osm_id": 43709505, "ref": "SPexSS342", "highway": "primary"}}, {"geometry": {"type": "Point", "coordinates": [1068837.6506255395, 5734058.940232471]}, "type": "Feature", "id": null, "properties": {"z_order": 24, "bridge": "yes", "layer": "1", "name": "Via Leonardo da Vinci", "municipality": "Mozzo", "osm_id": 81526496, "ref": "SP154", "highway": "tertiary"}}, {"geometry": {"type": "Point", "coordinates": [1068073.601904778, 5731732.2460472975]}, "type": "Feature", "id": null, "properties": {"z_order": 3, "name": "Via Liguria", "osm_id": 31783039, "municipality": "Mozzo", "oneway": "-1", "highway": "unclassified"}}, {"geometry": {"type": "Point", "coordinates": [1069311.88, 5733934.79]}, "type": "Feature", "id": null, "properties": {"z_order": 3, "municipality": "Mozzo", "name": "Via Lombardia", "highway": "residential", "osm_id": 195697220}}, {"geometry": {"type": "Point", "coordinates": [1068874.0, 5731796.18]}, "type": "Feature", "id": null, "properties": {"z_order": 3, "name": "Via Ludovico Ariosto", "municipality": "Mozzo", "surface": "asphalt", "osm_id": 51980477, "highway": "residential"}}, {"geometry": {"type": "Point", "coordinates": [1069323.25, 5731856.36]}, "type": "Feature", "id": null, "properties": {"z_order": 3, "municipality": "Mozzo", "name": "Via Mascagni", "highway": "residential", "osm_id": 37634026}}, {"geometry": {"type": "Point", "coordinates": [1068019.74, 5731732.11]}, "type": "Feature", "id": null, "properties": {"z_order": 23, "bridge": "yes", "layer": "1", "name": "Via Merena", "municipality": "Mozzo", "osm_id": 31783037, "highway": "unclassified"}}, {"geometry": {"type": "Point", "coordinates": [1068551.72, 5732147.55]}, "type": "Feature", "id": null, "properties": {"z_order": 3, "name": "Via Mos\u00e8 del Brolo", "oneway": "yes", "municipality": "Mozzo", "surface": "asphalt", "osm_id": 51980484, "highway": "residential"}}, {"geometry": {"type": "Point", "coordinates": [1068531.36, 5732294.39]}, "type": "Feature", "id": null, "properties": {"z_order": 3, "name": "Via Mozzi", "oneway": "yes", "municipality": "Mozzo", "surface": "asphalt", "osm_id": 218729865, "highway": "residential"}}, {"geometry": {"type": "Point", "coordinates": [1069087.39, 5733934.41]}, "type": "Feature", "id": null, "properties": {"z_order": 3, "municipality": "Mozzo", "name": "Via Padania", "highway": "unclassified", "osm_id": 197792138}}, {"geometry": {"type": "Point", "coordinates": [1068221.72, 5732796.75]}, "type": "Feature", "id": null, "properties": {"z_order": 3, "name": "Via Papa Giovanni XXIII", "municipality": "Mozzo", "surface": "asphalt", "osm_id": 37545863, "highway": "residential"}}, {"geometry": {"type": "Point", "coordinates": [1068718.34, 5732727.46]}, "type": "Feature", "id": null, "properties": {"z_order": 4, "name": "Via Papa Giovanni XXIII", "municipality": "Mozzo", "surface": "asphalt", "osm_id": 193985054, "highway": "tertiary"}}, {"geometry": {"type": "Point", "coordinates": [1068172.04, 5732831.41]}, "type": "Feature", "id": null, "properties": {"z_order": 3, "name": "Via Pascoletto", "municipality": "Mozzo", "surface": "asphalt", "osm_id": 218867636, "highway": "residential"}}, {"geometry": {"type": "Point", "coordinates": [1069284.47, 5733889.65]}, "type": "Feature", "id": null, "properties": {"z_order": 3, "municipality": "Mozzo", "name": "Via Piemonte", "highway": "residential", "osm_id": 195697242}}, {"geometry": {"type": "Point", "coordinates": [1069378.31, 5732910.52]}, "type": "Feature", "id": null, "properties": {"z_order": 3, "municipality": "Mozzo", "name": "Via Riolo", "highway": "unclassified", "osm_id": 114436755}}, {"geometry": {"type": "Point", "coordinates": [1069468.09, 5733238.14]}, "type": "Feature", "id": null, "properties": {"z_order": 3, "municipality": "Mozzo", "name": "Via San Lorenzo", "highway": "residential", "osm_id": 199246167}}, {"geometry": {"type": "Point", "coordinates": [1068489.67, 5731948.96]}, "type": "Feature", "id": null, "properties": {"z_order": 3, "name": "Via Silvio Pellico", "municipality": "Mozzo", "surface": "asphalt", "osm_id": 51980460, "highway": "residential"}}, {"geometry": {"type": "Point", "coordinates": [1069530.19, 5733128.26]}, "type": "Feature", "id": null, "properties": {"z_order": 3, "municipality": "Mozzo", "name": "Via Todeschini", "highway": "residential", "osm_id": 218688159}}, {"geometry": {"type": "Point", "coordinates": [1068601.83, 5731974.8]}, "type": "Feature", "id": null, "properties": {"z_order": 3, "name": "Via Torquato Tasso", "municipality": "Mozzo", "surface": "asphalt", "osm_id": 51980474, "highway": "residential"}}, {"geometry": {"type": "Point", "coordinates": [1068698.98, 5731784.43]}, "type": "Feature", "id": null, "properties": {"z_order": 3, "name": "Via Ugo Foscolo", "municipality": "Mozzo", "surface": "asphalt", "osm_id": 135158248, "highway": "residential"}}, {"geometry": {"type": "Point", "coordinates": [1068375.18, 5733047.8]}, "type": "Feature", "id": null, "properties": {"z_order": 3, "name": "Via Valle Quisa", "municipality": "Mozzo", "surface": "asphalt", "osm_id": 218729872, "highway": "residential"}}, {"geometry": {"type": "Point", "coordinates": [1069295.95, 5732108.92]}, "type": "Feature", "id": null, "properties": {"z_order": 3, "municipality": "Mozzo", "name": "Via Vincenzo Bellini", "highway": "unclassified", "osm_id": 37634024}}, {"geometry": {"type": "Point", "coordinates": [1068710.68, 5731863.72]}, "type": "Feature", "id": null, "properties": {"z_order": 3, "name": "Via Vittorio Alfieri", "municipality": "Mozzo", "surface": "asphalt", "osm_id": 51980476, "highway": "residential"}}, {"geometry": {"type": "Point", "coordinates": [1068902.03, 5733456.45]}, "type": "Feature", "id": null, "properties": {"z_order": 3, "name": "Via del Chiosco", "municipality": "Mozzo", "surface": "asphalt", "osm_id": 199083897, "highway": "unclassified"}}, {"geometry": {"type": "Point", "coordinates": [1069327.85, 5733674.2]}, "type": "Feature", "id": null, "properties": {"z_order": 3, "municipality": "Mozzo", "name": "Via del Commercio", "highway": "unclassified", "osm_id": 199083349}}, {"geometry": {"type": "Point", "coordinates": [1069198.53, 5734034.03]}, "type": "Feature", "id": null, "properties": {"z_order": 3, "name": "Via delle Industrie", "osm_id": 244823039, "municipality": "Mozzo", "oneway": "yes", "highway": "unclassified"}}]}, "municipality": "Mozzo"}, {"streets": {"type": "FeatureCollection", "features": [{"geometry": {"type": "Point", "coordinates": [1068834.5185013423, 5738169.7776506245]}, "type": "Feature", "id": null, "properties": {"z_order": -10, "layer": "-1", "bicycle": "designated", "name": "Strada Comunale della Merletta", "tunnel": "no", "municipality": "Alme", "width": "3", "osm_id": 59780719, "foot": "designated", "highway": "path"}}, {"geometry": {"type": "Point", "coordinates": [1068849.62, 5738160.38]}, "type": "Feature", "id": null, "properties": {"z_order": 0, "bicycle": "designated", "name": "Strada Comunale della Merletta", "municipality": "Paladina", "width": "3", "osm_id": 190557545, "foot": "designated", "highway": "cycleway"}}, {"geometry": {"type": "Point", "coordinates": [1069051.96, 5737782.49]}, "type": "Feature", "id": null, "properties": {"z_order": 3, "name": "Via Albert Einstein", "oneway": "yes", "municipality": "Paladina", "surface": "asphalt", "osm_id": 134111396, "highway": "residential"}}, {"geometry": {"type": "Point", "coordinates": [1069343.74, 5736373.43]}, "type": "Feature", "id": null, "properties": {"z_order": 3, "name": "Via Aldo Moro", "municipality": "Paladina", "surface": "asphalt", "osm_id": 81526494, "highway": "unclassified"}}, {"geometry": {"type": "Point", "coordinates": [1069060.31, 5736218.98]}, "type": "Feature", "id": null, "properties": {"z_order": 3, "municipality": "Paladina", "name": "Via Alessandro Manzoni", "highway": "residential", "osm_id": 196293576}}, {"geometry": {"type": "Point", "coordinates": [1069368.4703928537, 5737994.892570705]}, "type": "Feature", "id": null, "properties": {"z_order": 3, "name": "Via Alessandro Volta", "municipality": "Alme", "surface": "asphalt", "osm_id": 201952401, "highway": "residential"}}, {"geometry": {"type": "Point", "coordinates": [1069285.5, 5736854.86]}, "type": "Feature", "id": null, "properties": {"z_order": 3, "municipality": "Paladina", "name": "Via Cesare Battisti", "highway": "residential", "osm_id": 199238063}}, {"geometry": {"type": "Point", "coordinates": [1069307.7, 5737929.89]}, "type": "Feature", "id": null, "properties": {"z_order": 3, "name": "Via Charles Darwin", "oneway": "yes", "municipality": "Paladina", "surface": "asphalt", "osm_id": 201952400, "highway": "residential"}}, {"geometry": {"type": "Point", "coordinates": [1069414.46, 5737563.06]}, "type": "Feature", "id": null, "properties": {"z_order": 3, "municipality": "Paladina", "name": "Via Don Mario Carminati", "highway": "unclassified", "osm_id": 52064983}}, {"geometry": {"type": "Point", "coordinates": [1069092.47, 5736281.28]}, "type": "Feature", "id": null, "properties": {"z_order": 3, "name": "Via Enrico Berlinguer", "osm_id": 196293584, "municipality": "Paladina", "oneway": "-1", "highway": "residential"}}, {"geometry": {"type": "Point", "coordinates": [1069373.14, 5737191.96]}, "type": "Feature", "id": null, "properties": {"z_order": 3, "municipality": "Paladina", "name": "Via Fiume", "highway": "residential", "osm_id": 199238059}}, {"geometry": {"type": "Point", "coordinates": [1069353.71, 5737338.45]}, "type": "Feature", "id": null, "properties": {"z_order": 3, "municipality": "Paladina", "name": "Via Francesco Nullo", "highway": "unclassified", "osm_id": 196251737}}, {"geometry": {"type": "Point", "coordinates": [1069271.73, 5737406.24]}, "type": "Feature", "id": null, "properties": {"z_order": 3, "municipality": "Paladina", "name": "Via Gaetano Donizetti", "highway": "residential", "osm_id": 53268937}}, {"geometry": {"type": "Point", "coordinates": [1069203.02, 5737850.08]}, "type": "Feature", "id": null, "properties": {"z_order": 3, "name": "Via Galileo Galilei", "municipality": "Paladina", "surface": "asphalt", "osm_id": 134111394, "highway": "residential"}}, {"geometry": {"type": "Point", "coordinates": [1069371.01, 5736332.53]}, "type": "Feature", "id": null, "properties": {"z_order": 3, "name": "Via Generale Carlo Alberto Dalla Chiesa", "municipality": "Paladina", "surface": "asphalt", "osm_id": 154831513, "highway": "unclassified"}}, {"geometry": {"type": "Point", "coordinates": [1068747.7066645082, 5736791.174272335]}, "type": "Feature", "id": null, "properties": {"z_order": 3, "name": "Via Ghiaie", "osm_id": 219388038, "municipality": "Paladina", "oneway": "-1", "highway": "residential"}}, {"geometry": {"type": "Point", "coordinates": [1069236.09, 5736926.8]}, "type": "Feature", "id": null, "properties": {"z_order": 3, "name": "Via Libert\u00e0", "osm_id": 196293585, "municipality": "Paladina", "oneway": "yes", "highway": "unclassified"}}, {"geometry": {"type": "Point", "coordinates": [1068960.85, 5736051.21]}, "type": "Feature", "id": null, "properties": {"z_order": 3, "name": "Via Manguzzo", "municipality": "Paladina", "surface": "asphalt", "osm_id": 154656011, "highway": "unclassified"}}, {"geometry": {"type": "Point", "coordinates": [1069169.23, 5737670.57]}, "type": "Feature", "id": null, "properties": {"z_order": 3, "name": "Via Marie Curie", "municipality": "Paladina", "surface": "asphalt", "osm_id": 134111390, "highway": "residential"}}, {"geometry": {"type": "Point", "coordinates": [1068879.93, 5737870.82]}, "type": "Feature", "id": null, "properties": {"z_order": 3, "name": "Via Molino di Sopra", "municipality": "Paladina", "surface": "asphalt", "osm_id": 134111384, "highway": "residential"}}, {"geometry": {"type": "Point", "coordinates": [1069311.64, 5737009.18]}, "type": "Feature", "id": null, "properties": {"z_order": 3, "name": "Via Monte Grappa", "municipality": "Paladina", "surface": "asphalt", "osm_id": 199238065, "highway": "unclassified"}}, {"geometry": {"type": "Point", "coordinates": [1069122.55, 5736192.51]}, "type": "Feature", "id": null, "properties": {"z_order": 3, "name": "Via Ossanesga", "municipality": "Paladina", "surface": "asphalt", "osm_id": 199241879, "highway": "unclassified"}}, {"geometry": {"type": "Point", "coordinates": [1069149.94, 5736259.89]}, "type": "Feature", "id": null, "properties": {"z_order": 3, "name": "Via Paladina", "osm_id": 199239774, "municipality": "Paladina", "oneway": "-1", "highway": "residential"}}, {"geometry": {"type": "Point", "coordinates": [1069325.77, 5737633.81]}, "type": "Feature", "id": null, "properties": {"z_order": 3, "name": "Via Papa Giovanni XXIII", "municipality": "Paladina", "surface": "asphalt", "osm_id": 52064988, "highway": "unclassified"}}, {"geometry": {"type": "Point", "coordinates": [1069058.78, 5736686.71]}, "type": "Feature", "id": null, "properties": {"z_order": 3, "name": "Via Piave", "municipality": "Paladina", "surface": "asphalt", "osm_id": 53690371, "highway": "unclassified"}}, {"geometry": {"type": "Point", "coordinates": [1069057.53, 5736334.42]}, "type": "Feature", "id": null, "properties": {"z_order": 3, "municipality": "Paladina", "name": "Via Sandro Pertini", "highway": "residential", "osm_id": 199241883}}, {"geometry": {"type": "Point", "coordinates": [1069157.63, 5737411.7]}, "type": "Feature", "id": null, "properties": {"z_order": 3, "municipality": "Paladina", "name": "Via Sergio Bertolini", "highway": "residential", "osm_id": 53268927}}, {"geometry": {"type": "Point", "coordinates": [1068871.67, 5736833.74]}, "type": "Feature", "id": null, "properties": {"z_order": 3, "municipality": "Paladina", "name": "Via Sottoripa", "highway": "unclassified", "osm_id": 134111386}}, {"geometry": {"type": "Point", "coordinates": [1069370.37, 5737343.14]}, "type": "Feature", "id": null, "properties": {"z_order": 3, "municipality": "Paladina", "name": "Via Stazione", "highway": "residential", "osm_id": 201954540}}, {"geometry": {"type": "Point", "coordinates": [1069373.84, 5737992.52]}, "type": "Feature", "id": null, "properties": {"z_order": 3, "municipality": "Alme", "name": "Via Thomas Edison", "highway": "residential", "osm_id": 219907116}}, {"geometry": {"type": "Point", "coordinates": [1069398.98, 5736855.82]}, "type": "Feature", "id": null, "properties": {"z_order": 3, "name": "Via Torquato Tasso", "municipality": "Paladina", "surface": "asphalt", "osm_id": 199486731, "highway": "unclassified"}}, {"geometry": {"type": "Point", "coordinates": [1069350.03, 5737857.0]}, "type": "Feature", "id": null, "properties": {"z_order": 3, "name": "Via del Castello", "municipality": "Paladina", "surface": "asphalt", "osm_id": 29885144, "highway": "residential"}}, {"geometry": {"type": "Point", "coordinates": [1069353.71, 5737338.45]}, "type": "Feature", "id": null, "properties": {"z_order": 3, "municipality": "Paladina", "name": "Via della Resistenza", "highway": "residential", "osm_id": 53268936}}]}, "municipality": "Paladina"}, {"streets": {"type": "FeatureCollection", "features": [{"geometry": {"type": "Point", "coordinates": [1067658.07, 5731917.96]}, "type": "Feature", "id": null, "properties": {"z_order": 3, "municipality": "Ponte San Pietro", "name": "Largo 4 Novembre", "highway": "unclassified", "osm_id": 31782602}}, {"geometry": {"type": "Point", "coordinates": [1067352.7091294802, 5734327.6985858595]}, "type": "Feature", "id": null, "properties": {"z_order": 23, "bridge": "yes", "layer": "1", "name": "Ponte di Briolo", "municipality": "Valbrembo", "osm_id": 30537282, "highway": "unclassified"}}, {"geometry": {"type": "Point", "coordinates": [1064695.4, 5734085.78]}, "type": "Feature", "id": null, "properties": {"z_order": 7, "name": "Strada Provinciale ex Strada Statale 342 Briantea", "oneway": "yes", "municipality": "Ponte San Pietro", "surface": "asphalt", "osm_id": 88821627, "ref": "SPexSS342", "highway": "primary_link"}}, {"geometry": {"type": "Point", "coordinates": [1064849.48, 5733982.47]}, "type": "Feature", "id": null, "properties": {"z_order": 7, "junction": "roundabout", "name": "Strada Provinciale ex Strada Statale 342 Briantea", "municipality": "Ponte San Pietro", "surface": "asphalt", "osm_id": 171746364, "ref": "SPexSS342", "highway": "primary"}}, {"geometry": {"type": "Point", "coordinates": [1065853.62, 5731928.56]}, "type": "Feature", "id": null, "properties": {"z_order": 3, "municipality": "Ponte San Pietro", "name": "Via 24 Maggio", "highway": "unclassified", "osm_id": 52578349}}, {"geometry": {"type": "Point", "coordinates": [1066446.83, 5732207.11]}, "type": "Feature", "id": null, "properties": {"z_order": 3, "municipality": "Ponte San Pietro", "name": "Via 9 Febbraio", "highway": "unclassified", "osm_id": 171686745}}, {"geometry": {"type": "Point", "coordinates": [1064756.66, 5732726.64]}, "type": "Feature", "id": null, "properties": {"z_order": 3, "municipality": "Ponte San Pietro", "name": "Via Achille Grandi", "highway": "residential", "osm_id": 171374106}}, {"geometry": {"type": "Point", "coordinates": [1064699.53, 5733194.34]}, "type": "Feature", "id": null, "properties": {"z_order": 3, "name": "Via Agostino Depretis", "municipality": "Ponte San Pietro", "surface": "cobblestone", "osm_id": 172544723, "highway": "residential"}}, {"geometry": {"type": "Point", "coordinates": [1064801.35, 5734046.23]}, "type": "Feature", "id": null, "properties": {"z_order": 3, "name": "Via Alessandro Manzoni", "municipality": "Ponte San Pietro", "surface": "asphalt", "osm_id": 171379058, "highway": "unclassified"}}, {"geometry": {"type": "Point", "coordinates": [1068020.96, 5733759.4]}, "type": "Feature", "id": null, "properties": {"z_order": 3, "name": "Via Amerigo Vespucci", "municipality": "Ponte San Pietro", "surface": "asphalt", "osm_id": 178746817, "highway": "unclassified"}}, {"geometry": {"type": "Point", "coordinates": [1064935.81, 5733383.79]}, "type": "Feature", "id": null, "properties": {"z_order": 3, "municipality": "Ponte San Pietro", "name": "Via Armando Diaz", "highway": "unclassified", "osm_id": 172662080}}, {"geometry": {"type": "Point", "coordinates": [1065107.77, 5733605.86]}, "type": "Feature", "id": null, "properties": {"z_order": 3, "name": "Via Armando Diaz", "osm_id": 172546475, "municipality": "Ponte San Pietro", "oneway": "yes", "highway": "residential"}}, {"geometry": {"type": "Point", "coordinates": [1068043.71, 5732996.07]}, "type": "Feature", "id": null, "properties": {"z_order": 3, "name": "Via Bartolomeo Dalmasone", "municipality": "Ponte San Pietro", "surface": "asphalt", "osm_id": 37545864, "highway": "residential"}}, {"geometry": {"type": "Point", "coordinates": [1068008.32, 5733494.61]}, "type": "Feature", "id": null, "properties": {"z_order": 3, "municipality": "Ponte San Pietro", "name": "Via Beato Angelico", "highway": "residential", "osm_id": 199133282}}, {"geometry": {"type": "Point", "coordinates": [1066527.26, 5731816.96]}, "type": "Feature", "id": null, "properties": {"z_order": 3, "name": "Via Beato Papa Giovanni XXIII", "municipality": "Ponte San Pietro", "surface": "asphalt", "osm_id": 151338401, "highway": "residential"}}, {"geometry": {"type": "Point", "coordinates": [1066762.2826205692, 5732892.3499845285]}, "type": "Feature", "id": null, "properties": {"z_order": 3, "name": "Via Bruno Locatelli", "oneway": "yes", "municipality": "Ponte San Pietro", "surface": "asphalt", "osm_id": 172551164, "highway": "unclassified"}}, {"geometry": {"type": "Point", "coordinates": [1066089.18, 5731814.91]}, "type": "Feature", "id": null, "properties": {"z_order": 3, "name": "Via Camillo Berizzi", "municipality": "Ponte San Pietro", "surface": "asphalt", "osm_id": 32533674, "highway": "unclassified"}}, {"geometry": {"type": "Point", "coordinates": [1065704.67, 5732061.93]}, "type": "Feature", "id": null, "properties": {"z_order": 3, "name": "Via Carlo Forlanini", "municipality": "Ponte San Pietro", "surface": "asphalt", "osm_id": 32533672, "highway": "unclassified"}}, {"geometry": {"type": "Point", "coordinates": [1066101.15, 5732100.98]}, "type": "Feature", "id": null, "properties": {"z_order": 0, "name": "Via Carlo Forlanini", "osm_id": 196104295, "municipality": "Ponte San Pietro", "oneway": "-1", "highway": "service"}}, {"geometry": {"type": "Point", "coordinates": [1068095.57, 5731509.05]}, "type": "Feature", "id": null, "properties": {"z_order": 3, "municipality": "Ponte San Pietro", "name": "Via Cavour", "highway": "residential", "osm_id": 31783591}}, {"geometry": {"type": "Point", "coordinates": [1064823.24, 5733482.67]}, "type": "Feature", "id": null, "properties": {"z_order": 3, "municipality": "Ponte San Pietro", "name": "Via Ceresoli", "highway": "residential", "osm_id": 171386914}}, {"geometry": {"type": "Point", "coordinates": [1065166.34, 5732774.45]}, "type": "Feature", "id": null, "properties": {"z_order": 4, "municipality": "Ponte San Pietro", "name": "Via Cristoforo Colombo", "highway": "tertiary", "osm_id": 32610004}}, {"geometry": {"type": "Point", "coordinates": [1065166.34, 5732774.45]}, "type": "Feature", "id": null, "properties": {"z_order": 3, "bicycle": "yes", "name": "Via Cristoforo Colombo", "municipality": "Ponte San Pietro", "access": "no", "osm_id": 172394763, "foot": "yes", "highway": "residential"}}, {"geometry": {"type": "Point", "coordinates": [1066217.02, 5732277.64]}, "type": "Feature", "id": null, "properties": {"z_order": 3, "municipality": "Ponte San Pietro", "name": "Via Cristoforo Colombo", "highway": "unclassified", "osm_id": 172374706}}, {"geometry": {"type": "Point", "coordinates": [1067948.92, 5732961.71]}, "type": "Feature", "id": null, "properties": {"z_order": 3, "name": "Via Don Costante Pizzoni", "municipality": "Ponte San Pietro", "surface": "asphalt", "osm_id": 157284576, "highway": "residential"}}, {"geometry": {"type": "Point", "coordinates": [1064914.13, 5732889.32]}, "type": "Feature", "id": null, "properties": {"z_order": 3, "municipality": "Ponte San Pietro", "name": "Via Don Leone Foiadelli", "highway": "unclassified", "osm_id": 79767078}}, {"geometry": {"type": "Point", "coordinates": [1065205.71, 5732917.52]}, "type": "Feature", "id": null, "properties": {"z_order": 3, "municipality": "Ponte San Pietro", "name": "Via Don Leone Foiadelli", "highway": "residential", "osm_id": 172548534}}, {"geometry": {"type": "Point", "coordinates": [1067789.8, 5732244.06]}, "type": "Feature", "id": null, "properties": {"z_order": 3, "name": "Via Don Lombardi", "oneway": "-1", "municipality": "Ponte San Pietro", "surface": "asphalt", "osm_id": 37634019, "highway": "unclassified"}}, {"geometry": {"type": "Point", "coordinates": [1064819.02, 5732739.24]}, "type": "Feature", "id": null, "properties": {"z_order": 3, "name": "Via Don Lorenzo Allegrini", "municipality": "Ponte San Pietro", "surface": "gravel", "access": "no", "osm_id": 171378168, "highway": "residential"}}, {"geometry": {"type": "Point", "coordinates": [1064847.07, 5733006.23]}, "type": "Feature", "id": null, "properties": {"z_order": 4, "name": "Via Don Lorenzo Allegrini", "osm_id": 171370227, "municipality": "Ponte San Pietro", "oneway": "yes", "highway": "tertiary"}}, {"geometry": {"type": "Point", "coordinates": [1065033.51, 5733269.0]}, "type": "Feature", "id": null, "properties": {"z_order": 3, "name": "Via Don Primo Mazzolari", "osm_id": 171386774, "municipality": "Ponte San Pietro", "oneway": "-1", "highway": "unclassified"}}, {"geometry": {"type": "Point", "coordinates": [1064994.91, 5733395.82]}, "type": "Feature", "id": null, "properties": {"z_order": 3, "name": "Via Don Seghezzi", "osm_id": 172661568, "municipality": "Ponte San Pietro", "oneway": "yes", "highway": "unclassified"}}, {"geometry": {"type": "Point", "coordinates": [1067646.33, 5733531.89]}, "type": "Feature", "id": null, "properties": {"z_order": 3, "name": "Via Donatori degli Organi e del Sangue", "municipality": "Ponte San Pietro", "surface": "asphalt", "osm_id": 113439551, "highway": "unclassified"}}, {"geometry": {"type": "Point", "coordinates": [1068425.15, 5733916.89]}, "type": "Feature", "id": null, "properties": {"z_order": 3, "name": "Via Enrico Fermi", "municipality": "Ponte San Pietro", "surface": "asphalt", "osm_id": 178747295, "highway": "unclassified"}}, {"geometry": {"type": "Point", "coordinates": [1064946.99, 5732453.83]}, "type": "Feature", "id": null, "properties": {"z_order": 3, "name": "Via Eugenio Montale", "municipality": "Ponte San Pietro", "surface": "gravel", "osm_id": 171378480, "highway": "residential"}}, {"geometry": {"type": "Point", "coordinates": [1067533.49, 5733882.57]}, "type": "Feature", "id": null, "properties": {"z_order": 3, "name": "Via Fantoni", "oneway": "yes", "municipality": "Ponte San Pietro", "surface": "asphalt", "osm_id": 178746820, "highway": "residential"}}, {"geometry": {"type": "Point", "coordinates": [1065845.45, 5731986.65]}, "type": "Feature", "id": null, "properties": {"z_order": 3, "name": "Via Fausto Cologni", "municipality": "Ponte San Pietro", "surface": "asphalt", "osm_id": 52578350, "highway": "unclassified"}}, {"geometry": {"type": "Point", "coordinates": [1066215.06, 5731879.65]}, "type": "Feature", "id": null, "properties": {"z_order": 3, "name": "Via Fratelli Calvi", "municipality": "Ponte San Pietro", "surface": "asphalt", "osm_id": 219264999, "highway": "unclassified"}}, {"geometry": {"type": "Point", "coordinates": [1066954.24, 5732149.37]}, "type": "Feature", "id": null, "properties": {"z_order": 3, "name": "Via G. Matteotti", "osm_id": 32610399, "municipality": "Ponte San Pietro", "oneway": "yes", "highway": "unclassified"}}, {"geometry": {"type": "Point", "coordinates": [1067808.74, 5732543.18]}, "type": "Feature", "id": null, "properties": {"z_order": 3, "name": "Via Gaetano Donizetti", "oneway": "-1", "municipality": "Ponte San Pietro", "surface": "asphalt", "osm_id": 171642460, "highway": "unclassified"}}, {"geometry": {"type": "Point", "coordinates": [1068020.96, 5733759.4]}, "type": "Feature", "id": null, "properties": {"z_order": 3, "name": "Via Galileo Galilei", "municipality": "Ponte San Pietro", "surface": "asphalt", "osm_id": 178746816, "highway": "unclassified"}}, {"geometry": {"type": "Point", "coordinates": [1064660.6, 5733083.63]}, "type": "Feature", "id": null, "properties": {"z_order": 4, "municipality": "Ponte San Pietro", "name": "Via Gerolamo Mapelli", "highway": "tertiary", "osm_id": 225370990}}, {"geometry": {"type": "Point", "coordinates": [1064911.62, 5733134.97]}, "type": "Feature", "id": null, "properties": {"z_order": 3, "municipality": "Ponte San Pietro", "name": "Via Gerolamo Mapelli", "highway": "unclassified", "osm_id": 171370226}}, {"geometry": {"type": "Point", "coordinates": [1065449.62, 5733553.67]}, "type": "Feature", "id": null, "properties": {"z_order": 3, "municipality": "Ponte San Pietro", "name": "Via Giacomo Leopardi", "highway": "unclassified", "osm_id": 30532454}}, {"geometry": {"type": "Point", "coordinates": [1065429.47, 5733635.29]}, "type": "Feature", "id": null, "properties": {"z_order": 3, "municipality": "Ponte San Pietro", "name": "Via Giacomo Leopardi", "highway": "residential", "osm_id": 172824503}}, {"geometry": {"type": "Point", "coordinates": [1064729.67, 5733419.43]}, "type": "Feature", "id": null, "properties": {"z_order": 3, "municipality": "Ponte San Pietro", "name": "Via Giacomo Puccini", "highway": "residential", "osm_id": 171385936}}, {"geometry": {"type": "Point", "coordinates": [1064754.38, 5733305.52]}, "type": "Feature", "id": null, "properties": {"z_order": 3, "name": "Via Giacomo Puccini", "osm_id": 248551737, "municipality": "Ponte San Pietro", "oneway": "-1", "highway": "unclassified"}}, {"geometry": {"type": "Point", "coordinates": [1064612.42, 5733347.4]}, "type": "Feature", "id": null, "properties": {"z_order": 3, "municipality": "Ponte San Pietro", "name": "Via Gioachino Rossini", "highway": "residential", "osm_id": 172392382}}, {"geometry": {"type": "Point", "coordinates": [1067559.85, 5734040.73]}, "type": "Feature", "id": null, "properties": {"z_order": 3, "municipality": "Ponte San Pietro", "name": "Via Giorgio Paglia", "highway": "residential", "osm_id": 196285649}}, {"geometry": {"type": "Point", "coordinates": [1065720.76, 5731921.39]}, "type": "Feature", "id": null, "properties": {"z_order": 3, "municipality": "Ponte San Pietro", "name": "Via Giosu\u00e8 Carducci", "highway": "unclassified", "osm_id": 52578352}}, {"geometry": {"type": "Point", "coordinates": [1067715.07, 5733792.21]}, "type": "Feature", "id": null, "properties": {"z_order": 3, "name": "Via Giotto", "municipality": "Ponte San Pietro", "surface": "asphalt", "osm_id": 178746818, "highway": "residential"}}, {"geometry": {"type": "Point", "coordinates": [1065429.62, 5733000.55]}, "type": "Feature", "id": null, "properties": {"z_order": 3, "municipality": "Ponte San Pietro", "name": "Via Giovanni Boccaccio", "highway": "unclassified", "osm_id": 92003235}}, {"geometry": {"type": "Point", "coordinates": [1064955.54, 5732617.59]}, "type": "Feature", "id": null, "properties": {"z_order": 3, "municipality": "Ponte San Pietro", "name": "Via Giovanni Pascoli", "highway": "residential", "osm_id": 171378017}}, {"geometry": {"type": "Point", "coordinates": [1067310.24, 5732264.52]}, "type": "Feature", "id": null, "properties": {"z_order": 3, "municipality": "Ponte San Pietro", "name": "Via Giuseppe Garibaldi", "highway": "unclassified", "osm_id": 171502151}}, {"geometry": {"type": "Point", "coordinates": [1065025.08, 5732365.19]}, "type": "Feature", "id": null, "properties": {"z_order": 3, "name": "Via Giuseppe Ungaretti", "municipality": "Ponte San Pietro", "surface": "gravel", "osm_id": 171378599, "highway": "residential"}}, {"geometry": {"type": "Point", "coordinates": [1064667.71, 5734605.26]}, "type": "Feature", "id": null, "properties": {"z_order": 3, "junction": "roundabout", "name": "Via Guglielmo Marconi", "municipality": "Ponte San Pietro", "surface": "asphalt", "osm_id": 280186078, "highway": "unclassified"}}, {"geometry": {"type": "Point", "coordinates": [1066818.12, 5732625.41]}, "type": "Feature", "id": null, "properties": {"z_order": 3, "bicycle": "yes", "name": "Via Guglielmo Marconi 21", "municipality": "Ponte San Pietro", "surface": "asphalt", "osm_id": 256509098, "foot": "yes", "highway": "residential"}}, {"geometry": {"type": "Point", "coordinates": [1064573.19, 5732965.04]}, "type": "Feature", "id": null, "properties": {"z_order": 3, "name": "Via Guglielmo Pesenti", "osm_id": 172374338, "municipality": "Ponte San Pietro", "oneway": "yes", "highway": "residential"}}, {"geometry": {"type": "Point", "coordinates": [1064864.38, 5733968.88]}, "type": "Feature", "id": null, "properties": {"z_order": 0, "name": "Via Ingegner Gianni Caproni", "oneway": "yes", "municipality": "Ponte San Pietro", "surface": "asphalt", "osm_id": 172826968, "highway": "service"}}, {"geometry": {"type": "Point", "coordinates": [1067688.26, 5731693.45]}, "type": "Feature", "id": null, "properties": {"z_order": 3, "name": "Via Isolotto", "municipality": "Ponte San Pietro", "surface": "asphalt", "osm_id": 161291015, "highway": "residential"}}, {"geometry": {"type": "Point", "coordinates": [1066528.44, 5732454.29]}, "type": "Feature", "id": null, "properties": {"z_order": 3, "name": "Via John Fitzgerald Kennedy", "oneway": "yes", "municipality": "Ponte San Pietro", "surface": "asphalt", "osm_id": 30533280, "highway": "unclassified"}}, {"geometry": {"type": "Point", "coordinates": [1064440.32, 5733355.11]}, "type": "Feature", "id": null, "properties": {"z_order": 3, "name": "Via Lazzarini", "municipality": "Ponte San Pietro", "surface": "asphalt", "osm_id": 171385901, "highway": "residential"}}, {"geometry": {"type": "Point", "coordinates": [1064988.78, 5732060.61]}, "type": "Feature", "id": null, "properties": {"z_order": 3, "municipality": "Ponte San Pietro", "name": "Via Leonardo Da Vinci", "highway": "unclassified", "osm_id": 92003234}}, {"geometry": {"type": "Point", "coordinates": [1067631.71, 5734145.91]}, "type": "Feature", "id": null, "properties": {"z_order": 4, "name": "Via Leonardo da Vinci", "municipality": "Valbrembo", "surface": "asphalt", "osm_id": 195585096, "ref": "SP154", "highway": "tertiary"}}, {"geometry": {"type": "Point", "coordinates": [1066060.78, 5732203.67]}, "type": "Feature", "id": null, "properties": {"z_order": 3, "municipality": "Ponte San Pietro", "name": "Via Leone XIII", "highway": "unclassified", "osm_id": 52578351}}, {"geometry": {"type": "Point", "coordinates": [1068116.6, 5731582.71]}, "type": "Feature", "id": null, "properties": {"z_order": 3, "name": "Via Liguria", "osm_id": 31783039, "municipality": "Mozzo", "oneway": "-1", "highway": "unclassified"}}, {"geometry": {"type": "Point", "coordinates": [1066934.89, 5732020.44]}, "type": "Feature", "id": null, "properties": {"z_order": 3, "name": "Via Locatelli", "municipality": "Ponte San Pietro", "surface": "asphalt", "osm_id": 196031074, "highway": "unclassified"}}, {"geometry": {"type": "Point", "coordinates": [1066092.9, 5732481.61]}, "type": "Feature", "id": null, "properties": {"z_order": 23, "bridge": "yes", "layer": "1", "name": "Via Luigi Pasteur", "oneway": "yes", "municipality": "Ponte San Pietro", "osm_id": 172389828, "highway": "unclassified"}}, {"geometry": {"type": "Point", "coordinates": [1068032.0, 5730984.19]}, "type": "Feature", "id": null, "properties": {"z_order": 3, "municipality": "Ponte San Pietro", "name": "Via Lungobrembo", "highway": "unclassified", "osm_id": 26112440}}, {"geometry": {"type": "Point", "coordinates": [1065355.31, 5732522.08]}, "type": "Feature", "id": null, "properties": {"z_order": 3, "municipality": "Ponte San Pietro", "name": "Via Marco Polo", "highway": "residential", "osm_id": 92003221}}, {"geometry": {"type": "Point", "coordinates": [1066975.6, 5732247.52]}, "type": "Feature", "id": null, "properties": {"z_order": 3, "name": "Via Matteotti", "osm_id": 171501633, "municipality": "Ponte San Pietro", "oneway": "yes", "highway": "unclassified"}}, {"geometry": {"type": "Point", "coordinates": [1067999.58, 5731728.21]}, "type": "Feature", "id": null, "properties": {"z_order": 23, "bridge": "yes", "layer": "1", "name": "Via Merena", "municipality": "Mozzo", "osm_id": 31783037, "highway": "unclassified"}}, {"geometry": {"type": "Point", "coordinates": [1067795.29, 5733749.31]}, "type": "Feature", "id": null, "properties": {"z_order": 3, "name": "Via Meucci", "municipality": "Ponte San Pietro", "surface": "asphalt", "osm_id": 196285773, "highway": "residential"}}, {"geometry": {"type": "Point", "coordinates": [1066237.12, 5732414.41]}, "type": "Feature", "id": null, "properties": {"z_order": 6, "name": "Via Milano", "oneway": "yes", "municipality": "Ponte San Pietro", "osm_id": 25506431, "ref": "SP155", "highway": "secondary_link"}}, {"geometry": {"type": "Point", "coordinates": [1066244.83, 5732389.96]}, "type": "Feature", "id": null, "properties": {"z_order": 6, "name": "Via Milano", "municipality": "Ponte San Pietro", "osm_id": 25506432, "ref": "SP155", "highway": "secondary"}}, {"geometry": {"type": "Point", "coordinates": [1064754.38, 5733305.52]}, "type": "Feature", "id": null, "properties": {"z_order": 3, "municipality": "Ponte San Pietro", "name": "Via Monsignor Luigi Gualandris", "highway": "residential", "osm_id": 171374629}}, {"geometry": {"type": "Point", "coordinates": [1066833.65, 5732184.97]}, "type": "Feature", "id": null, "properties": {"z_order": 3, "name": "Via Monte Grappa", "osm_id": 171501329, "municipality": "Ponte San Pietro", "oneway": "yes", "highway": "unclassified"}}, {"geometry": {"type": "Point", "coordinates": [1067822.25, 5731591.19]}, "type": "Feature", "id": null, "properties": {"z_order": 3, "municipality": "Ponte San Pietro", "name": "Via Mozart", "highway": "residential", "osm_id": 31782773}}, {"geometry": {"type": "Point", "coordinates": [1064400.69, 5732717.03]}, "type": "Feature", "id": null, "properties": {"z_order": 3, "municipality": "Ponte San Pietro", "name": "Via Nicola Barr\u00e8", "highway": "residential", "osm_id": 171864894}}, {"geometry": {"type": "Point", "coordinates": [1068064.37, 5733402.73]}, "type": "Feature", "id": null, "properties": {"z_order": 3, "name": "Via Padre Bartolomeo Dalmasone", "municipality": "Ponte San Pietro", "surface": "asphalt", "osm_id": 178746345, "highway": "unclassified"}}, {"geometry": {"type": "Point", "coordinates": [1067562.29, 5731971.0]}, "type": "Feature", "id": null, "properties": {"z_order": 3, "name": "Via Piazzini", "oneway": "yes", "municipality": "Ponte San Pietro", "surface": "asphalt", "osm_id": 37634014, "highway": "unclassified"}}, {"geometry": {"type": "Point", "coordinates": [1066131.75, 5732204.29]}, "type": "Feature", "id": null, "properties": {"z_order": 3, "municipality": "Ponte San Pietro", "name": "Via Pietro Gobetti", "highway": "unclassified", "osm_id": 92003247}}, {"geometry": {"type": "Point", "coordinates": [1064677.84, 5733006.96]}, "type": "Feature", "id": null, "properties": {"z_order": 3, "name": "Via Pietro Moroni", "osm_id": 171368192, "municipality": "Ponte San Pietro", "oneway": "yes", "highway": "unclassified"}}, {"geometry": {"type": "Point", "coordinates": [1064744.09, 5733022.45]}, "type": "Feature", "id": null, "properties": {"z_order": 3, "municipality": "Ponte San Pietro", "name": "Via Pietro Moroni", "highway": "residential", "osm_id": 171373741}}, {"geometry": {"type": "Point", "coordinates": [1068073.72, 5731049.65]}, "type": "Feature", "id": null, "properties": {"z_order": 3, "municipality": "Curno", "name": "Via Puglia", "highway": "residential", "osm_id": 51980455}}, {"geometry": {"type": "Point", "coordinates": [1067663.1, 5733654.54]}, "type": "Feature", "id": null, "properties": {"z_order": 3, "name": "Via Raffaello Sanzio", "municipality": "Ponte San Pietro", "surface": "asphalt", "osm_id": 178746821, "highway": "unclassified"}}, {"geometry": {"type": "Point", "coordinates": [1067664.91, 5733960.97]}, "type": "Feature", "id": null, "properties": {"z_order": 3, "name": "Via Raffaello Sanzio", "municipality": "Ponte San Pietro", "surface": "asphalt", "osm_id": 196380393, "highway": "residential"}}, {"geometry": {"type": "Point", "coordinates": [1067543.46, 5733960.03]}, "type": "Feature", "id": null, "properties": {"z_order": 3, "name": "Via Rezzara", "municipality": "Ponte San Pietro", "surface": "asphalt", "osm_id": 178746819, "highway": "residential"}}, {"geometry": {"type": "Point", "coordinates": [1066510.73, 5731311.48]}, "type": "Feature", "id": null, "properties": {"z_order": 3, "name": "Via Roma", "municipality": "Ponte San Pietro", "surface": "asphalt", "osm_id": 219265003, "highway": "unclassified"}}, {"geometry": {"type": "Point", "coordinates": [1067894.25, 5732940.46]}, "type": "Feature", "id": null, "properties": {"z_order": 3, "municipality": "Ponte San Pietro", "name": "Via Rovelli", "highway": "residential", "osm_id": 196285650}}, {"geometry": {"type": "Point", "coordinates": [1066557.26, 5731811.86]}, "type": "Feature", "id": null, "properties": {"z_order": 3, "municipality": "Ponte San Pietro", "name": "Via San Carlo", "highway": "residential", "osm_id": 173975066}}, {"geometry": {"type": "Point", "coordinates": [1067465.06, 5734030.83]}, "type": "Feature", "id": null, "properties": {"z_order": 4, "name": "Via San Clemente", "municipality": "Ponte San Pietro", "surface": "asphalt", "osm_id": 195822683, "ref": "SP154", "highway": "tertiary"}}, {"geometry": {"type": "Point", "coordinates": [1064915.64, 5732498.51]}, "type": "Feature", "id": null, "properties": {"z_order": 3, "name": "Via San Gaudenzio", "municipality": "Ponte San Pietro", "access": "no", "osm_id": 171756384, "highway": "residential"}}, {"geometry": {"type": "Point", "coordinates": [1065025.08, 5732365.19]}, "type": "Feature", "id": null, "properties": {"z_order": 3, "municipality": "Ponte San Pietro", "name": "Via San Gaudenzio", "highway": "unclassified", "osm_id": 52578200}}, {"geometry": {"type": "Point", "coordinates": [1066634.47, 5731817.2]}, "type": "Feature", "id": null, "properties": {"z_order": 3, "municipality": "Ponte San Pietro", "name": "Via San Giovanni Boasco", "highway": "residential", "osm_id": 173974497}}, {"geometry": {"type": "Point", "coordinates": [1067968.59, 5734113.87]}, "type": "Feature", "id": null, "properties": {"z_order": 3, "name": "Via San Giovanni Bosco", "municipality": "Valbrembo", "surface": "asphalt", "osm_id": 60169266, "highway": "residential"}}, {"geometry": {"type": "Point", "coordinates": [1067926.61, 5733127.21]}, "type": "Feature", "id": null, "properties": {"z_order": 3, "name": "Via San Marco", "municipality": "Ponte San Pietro", "surface": "asphalt", "osm_id": 178746346, "highway": "residential"}}, {"geometry": {"type": "Point", "coordinates": [1067887.53, 5733021.15]}, "type": "Feature", "id": null, "properties": {"z_order": 3, "municipality": "Ponte San Pietro", "name": "Via Sant'Alessandro", "highway": "residential", "osm_id": 196285652}}, {"geometry": {"type": "Point", "coordinates": [1067733.55, 5732422.29]}, "type": "Feature", "id": null, "properties": {"z_order": 3, "name": "Via Sant'Anna", "municipality": "Ponte San Pietro", "surface": "asphalt", "osm_id": 37634016, "highway": "unclassified"}}, {"geometry": {"type": "Point", "coordinates": [1064675.66, 5732749.21]}, "type": "Feature", "id": null, "properties": {"z_order": 3, "municipality": "Ponte San Pietro", "name": "Via Sant'Antonino", "highway": "residential", "osm_id": 171385392}}, {"geometry": {"type": "Point", "coordinates": [1067931.13, 5732459.87]}, "type": "Feature", "id": null, "properties": {"z_order": 3, "name": "Via Santa Lucia", "oneway": "yes", "municipality": "Ponte San Pietro", "surface": "asphalt", "osm_id": 37545856, "highway": "unclassified"}}, {"geometry": {"type": "Point", "coordinates": [1068022.86, 5732564.59]}, "type": "Feature", "id": null, "properties": {"z_order": 0, "municipality": "Ponte San Pietro", "name": "Via Santa Lucia", "highway": "service", "osm_id": 195752802}}, {"geometry": {"type": "Point", "coordinates": [1067603.45, 5733805.12]}, "type": "Feature", "id": null, "properties": {"z_order": 3, "municipality": "Ponte San Pietro", "name": "Via Tiepolo", "highway": "residential", "osm_id": 197783907}}, {"geometry": {"type": "Point", "coordinates": [1065841.53, 5732491.76]}, "type": "Feature", "id": null, "properties": {"z_order": 3, "municipality": "Ponte San Pietro", "name": "Via Torquato Tasso", "highway": "residential", "osm_id": 172389826}}, {"geometry": {"type": "Point", "coordinates": [1068153.56, 5733275.04]}, "type": "Feature", "id": null, "properties": {"z_order": 3, "name": "Via Turati", "municipality": "Ponte San Pietro", "surface": "asphalt", "osm_id": 178746344, "highway": "unclassified"}}, {"geometry": {"type": "Point", "coordinates": [1064909.53, 5733021.94]}, "type": "Feature", "id": null, "properties": {"z_order": 3, "name": "Via Umberto I", "osm_id": 171374677, "municipality": "Ponte San Pietro", "oneway": "yes", "highway": "residential"}}, {"geometry": {"type": "Point", "coordinates": [1064906.23, 5733281.15]}, "type": "Feature", "id": null, "properties": {"z_order": 3, "name": "Via Umberto I", "osm_id": 171369780, "municipality": "Ponte San Pietro", "oneway": "-1", "highway": "unclassified"}}, {"geometry": {"type": "Point", "coordinates": [1065115.45, 5732676.02]}, "type": "Feature", "id": null, "properties": {"z_order": 3, "name": "Via Vanni Rossi", "municipality": "Ponte San Pietro", "surface": "dirt", "access": "no", "osm_id": 172423895, "highway": "residential"}}, {"geometry": {"type": "Point", "coordinates": [1065296.9, 5732570.25]}, "type": "Feature", "id": null, "properties": {"z_order": 0, "bicycle": "dismount", "name": "Via Vanni Rossi", "municipality": "Ponte San Pietro", "access": "yes", "osm_id": 172822931, "foot": "yes", "highway": "footway"}}, {"geometry": {"type": "Point", "coordinates": [1064910.21, 5733516.08]}, "type": "Feature", "id": null, "properties": {"z_order": 3, "municipality": "Ponte San Pietro", "name": "Via Vincenzo Bellini", "highway": "residential", "osm_id": 171387044}}, {"geometry": {"type": "Point", "coordinates": [1067669.71, 5731893.24]}, "type": "Feature", "id": null, "properties": {"z_order": 3, "municipality": "Ponte San Pietro", "name": "Via Vitali", "highway": "unclassified", "osm_id": 161291016}}, {"geometry": {"type": "Point", "coordinates": [1067562.29, 5731971.0]}, "type": "Feature", "id": null, "properties": {"z_order": 3, "municipality": "Ponte San Pietro", "name": "Via Vittorio Emanuele II", "highway": "unclassified", "osm_id": 196030555}}, {"geometry": {"type": "Point", "coordinates": [1064899.51, 5733321.75]}, "type": "Feature", "id": null, "properties": {"z_order": 3, "name": "Via Vittorio Veneto", "osm_id": 42378255, "municipality": "Ponte San Pietro", "oneway": "yes", "highway": "unclassified"}}, {"geometry": {"type": "Point", "coordinates": [1066278.214653552, 5731404.183711602]}, "type": "Feature", "id": null, "properties": {"z_order": 6, "name": "Via Vittorio Veneto", "oneway": "yes", "municipality": "Ponte San Pietro", "surface": "asphalt", "osm_id": 37703976, "ref": "SP166", "highway": "secondary"}}, {"geometry": {"type": "Point", "coordinates": [1068064.37, 5733402.73]}, "type": "Feature", "id": null, "properties": {"z_order": 3, "name": "Via XX Settembre", "municipality": "Ponte San Pietro", "surface": "asphalt", "osm_id": 178746349, "highway": "unclassified"}}, {"geometry": {"type": "Point", "coordinates": [1067734.59, 5732166.95]}, "type": "Feature", "id": null, "properties": {"z_order": 3, "name": "Via dei Mille", "osm_id": 37634022, "municipality": "Ponte San Pietro", "oneway": "yes", "highway": "unclassified"}}, {"geometry": {"type": "Point", "coordinates": [1068065.09, 5733166.17]}, "type": "Feature", "id": null, "properties": {"z_order": 3, "name": "Via della Pace", "municipality": "Ponte San Pietro", "surface": "asphalt", "osm_id": 199089051, "highway": "unclassified"}}, {"geometry": {"type": "Point", "coordinates": [1066058.97, 5732327.18]}, "type": "Feature", "id": null, "properties": {"z_order": 3, "municipality": "Ponte San Pietro", "name": "Via della Resistenza", "highway": "unclassified", "osm_id": 92003228}}, {"geometry": {"type": "Point", "coordinates": [1067875.76, 5731989.75]}, "type": "Feature", "id": null, "properties": {"z_order": 3, "name": "Viale Italia", "municipality": "Ponte San Pietro", "surface": "asphalt", "osm_id": 196031083, "highway": "unclassified"}}, {"geometry": {"type": "Point", "coordinates": [1064557.52, 5732754.86]}, "type": "Feature", "id": null, "properties": {"z_order": 3, "name": "Viale delle Rimembranze", "osm_id": 92232065, "municipality": "Ponte San Pietro", "oneway": "yes", "highway": "unclassified"}}]}, "municipality": "Ponte San Pietro"}, {"streets": {"type": "FeatureCollection", "features": [{"geometry": {"type": "Point", "coordinates": [1069370.37, 5728864.32]}, "type": "Feature", "id": null, "properties": {"z_order": 23, "bridge": "yes", "layer": "1", "name": "Via Carlinga", "municipality": "Treviolo", "osm_id": 37634050, "highway": "unclassified"}}, {"geometry": {"type": "Point", "coordinates": [1068767.93, 5728938.13]}, "type": "Feature", "id": null, "properties": {"z_order": 8, "name": "Via Dalmine", "oneway": "yes", "municipality": "Curno", "surface": "asphalt", "osm_id": 31531284, "ref": "SS470", "highway": "trunk"}}, {"geometry": {"type": "Point", "coordinates": [1069354.16, 5728376.14]}, "type": "Feature", "id": null, "properties": {"z_order": 3, "junction": "roundabout", "name": "Via Gorizia", "municipality": "Treviolo", "osm_id": 55216756, "highway": "unclassified"}}, {"geometry": {"type": "Point", "coordinates": [1068808.84, 5727619.95]}, "type": "Feature", "id": null, "properties": {"z_order": -2, "name": "Villa D'Alm\u00e8 - Dalmine", "tunnel": "yes", "oneway": "yes", "municipality": "Treviolo", "surface": "asphalt", "osm_id": 56004200, "ref": "SPexSS470dir", "highway": "trunk"}}]}, "municipality": "Treviolo"}, {"streets": {"type": "FeatureCollection", "features": [{"geometry": {"type": "Point", "coordinates": [1068536.34, 5734128.64]}, "type": "Feature", "id": null, "properties": {"z_order": 3, "name": "Corso Europa Unita", "osm_id": 195585084, "municipality": "Valbrembo", "oneway": "yes", "highway": "unclassified"}}, {"geometry": {"type": "Point", "coordinates": [1068731.53, 5735456.64]}, "type": "Feature", "id": null, "properties": {"z_order": 3, "municipality": "Valbrembo", "name": "Corso Europa Unita", "highway": "residential", "osm_id": 258467372}}, {"geometry": {"type": "Point", "coordinates": [1069301.16, 5735960.61]}, "type": "Feature", "id": null, "properties": {"z_order": 3, "name": "Piazza vittoria", "osm_id": 199239769, "municipality": "Valbrembo", "oneway": "yes", "highway": "unclassified"}}, {"geometry": {"type": "Point", "coordinates": [1067387.0, 5734319.44]}, "type": "Feature", "id": null, "properties": {"z_order": 23, "bridge": "yes", "layer": "1", "name": "Ponte di Briolo", "municipality": "Valbrembo", "osm_id": 30537282, "highway": "unclassified"}}, {"geometry": {"type": "Point", "coordinates": [1068961.7, 5735987.48]}, "type": "Feature", "id": null, "properties": {"z_order": 3, "municipality": "Valbrembo", "name": "Via Arturo Toscanini", "highway": "residential", "osm_id": 199240998}}, {"geometry": {"type": "Point", "coordinates": [1069050.64, 5735815.86]}, "type": "Feature", "id": null, "properties": {"z_order": 3, "municipality": "Valbrembo", "name": "Via Cesare Battisti", "highway": "residential", "osm_id": 199240993}}, {"geometry": {"type": "Point", "coordinates": [1068125.83, 5734466.03]}, "type": "Feature", "id": null, "properties": {"z_order": 3, "name": "Via Cornelle", "municipality": "Valbrembo", "surface": "asphalt", "osm_id": 79403672, "highway": "unclassified"}}, {"geometry": {"type": "Point", "coordinates": [1068880.08, 5735033.3]}, "type": "Feature", "id": null, "properties": {"z_order": 0, "layer": "0", "name": "Via E. Moroni", "municipality": "Valbrembo", "osm_id": 256606585, "highway": "living_street"}}, {"geometry": {"type": "Point", "coordinates": [1068465.87, 5734086.59]}, "type": "Feature", "id": null, "properties": {"z_order": 3, "name": "Via Enrico Fermi", "oneway": "yes", "municipality": "Valbrembo", "surface": "asphalt", "osm_id": 130659872, "highway": "unclassified"}}, {"geometry": {"type": "Point", "coordinates": [1069384.29, 5736151.45]}, "type": "Feature", "id": null, "properties": {"z_order": 3, "name": "Via Generale Carlo Alberto Dalla Chiesa", "municipality": "Paladina", "surface": "asphalt", "osm_id": 154831513, "highway": "unclassified"}}, {"geometry": {"type": "Point", "coordinates": [1068223.78, 5735644.77]}, "type": "Feature", "id": null, "properties": {"z_order": 3, "municipality": "Valbrembo", "name": "Via Ghiaie", "highway": "residential", "osm_id": 60169261}}, {"geometry": {"type": "Point", "coordinates": [1069431.66, 5734268.25]}, "type": "Feature", "id": null, "properties": {"z_order": 3, "municipality": "Valbrembo", "name": "Via Giacomo Matteotti", "highway": "unclassified", "osm_id": 195516829}}, {"geometry": {"type": "Point", "coordinates": [1068959.3, 5735738.47]}, "type": "Feature", "id": null, "properties": {"z_order": 3, "municipality": "Valbrembo", "name": "Via Gioachino Rossini", "highway": "residential", "osm_id": 199240994}}, {"geometry": {"type": "Point", "coordinates": [1068265.55, 5734426.03]}, "type": "Feature", "id": null, "properties": {"z_order": 3, "name": "Via Giuseppe Garibaldi", "municipality": "Valbrembo", "surface": "asphalt", "osm_id": 242408172, "highway": "unclassified"}}, {"geometry": {"type": "Point", "coordinates": [1067822.9305809918, 5734124.024603242]}, "type": "Feature", "id": null, "properties": {"z_order": 3, "name": "Via Guglielmo Marconi", "municipality": "Valbrembo", "surface": "asphalt", "osm_id": 29975044, "highway": "unclassified"}}, {"geometry": {"type": "Point", "coordinates": [1068446.94, 5734595.21]}, "type": "Feature", "id": null, "properties": {"z_order": 3, "name": "Via Italia", "municipality": "Valbrembo", "surface": "asphalt", "osm_id": 58871074, "highway": "unclassified"}}, {"geometry": {"type": "Point", "coordinates": [1067564.26, 5734187.89]}, "type": "Feature", "id": null, "properties": {"z_order": 4, "name": "Via Leonardo da Vinci", "municipality": "Valbrembo", "surface": "asphalt", "osm_id": 195585096, "ref": "SP154", "highway": "tertiary"}}, {"geometry": {"type": "Point", "coordinates": [1069174.28, 5735740.25]}, "type": "Feature", "id": null, "properties": {"z_order": 3, "name": "Via Libert\u00e0", "municipality": "Valbrembo", "surface": "asphalt", "osm_id": 191259373, "highway": "unclassified"}}, {"geometry": {"type": "Point", "coordinates": [1068873.12, 5735924.99]}, "type": "Feature", "id": null, "properties": {"z_order": 3, "name": "Via Manguzzo", "municipality": "Valbrembo", "surface": "asphalt", "osm_id": 68040423, "highway": "unclassified"}}, {"geometry": {"type": "Point", "coordinates": [1069178.43, 5736118.61]}, "type": "Feature", "id": null, "properties": {"z_order": 3, "name": "Via Paladina", "osm_id": 199239774, "municipality": "Paladina", "oneway": "-1", "highway": "residential"}}, {"geometry": {"type": "Point", "coordinates": [1069125.41, 5734265.06]}, "type": "Feature", "id": null, "properties": {"z_order": 3, "municipality": "Valbrembo", "name": "Via Papa Giovanni XXIII", "highway": "unclassified", "osm_id": 256470437}}, {"geometry": {"type": "Point", "coordinates": [1069456.41, 5735736.57]}, "type": "Feature", "id": null, "properties": {"z_order": 3, "name": "Via Patrioti", "osm_id": 199240081, "municipality": "Valbrembo", "oneway": "yes", "highway": "unclassified"}}, {"geometry": {"type": "Point", "coordinates": [1069406.61, 5734442.91]}, "type": "Feature", "id": null, "properties": {"z_order": 3, "name": "Via Roma", "osm_id": 197531385, "municipality": "Valbrembo", "oneway": "yes", "highway": "unclassified"}}, {"geometry": {"type": "Point", "coordinates": [1067969.49, 5734136.79]}, "type": "Feature", "id": null, "properties": {"z_order": 3, "name": "Via San Giovanni Bosco", "municipality": "Valbrembo", "surface": "asphalt", "osm_id": 60169266, "highway": "residential"}}, {"geometry": {"type": "Point", "coordinates": [1069277.62, 5735766.53]}, "type": "Feature", "id": null, "properties": {"z_order": 3, "municipality": "Valbrembo", "name": "Via Scuole Vecchie", "highway": "residential", "osm_id": 199239770}}, {"geometry": {"type": "Point", "coordinates": [1069024.68, 5735866.57]}, "type": "Feature", "id": null, "properties": {"z_order": 3, "name": "Via Torre Vacis", "municipality": "Valbrembo", "surface": "asphalt", "osm_id": 199241880, "highway": "unclassified"}}, {"geometry": {"type": "Point", "coordinates": [1068913.92, 5735772.51]}, "type": "Feature", "id": null, "properties": {"z_order": 3, "municipality": "Valbrembo", "name": "Via Vincenzo Bellini", "highway": "residential", "osm_id": 199240995}}, {"geometry": {"type": "Point", "coordinates": [1069411.13, 5735610.32]}, "type": "Feature", "id": null, "properties": {"z_order": 3, "municipality": "Valbrembo", "name": "Via alla Quisa", "highway": "unclassified", "osm_id": 59780722}}, {"geometry": {"type": "Point", "coordinates": [1068588.0, 5735121.95]}, "type": "Feature", "id": null, "properties": {"z_order": 3, "municipality": "Valbrembo", "name": "Via della Sorte", "highway": "unclassified", "osm_id": 58871082}}, {"geometry": {"type": "Point", "coordinates": [1069147.33, 5734047.4]}, "type": "Feature", "id": null, "properties": {"z_order": 3, "name": "Via delle Industrie", "osm_id": 244823039, "municipality": "Mozzo", "oneway": "yes", "highway": "unclassified"}}, {"geometry": {"type": "Point", "coordinates": [1069252.39, 5735890.18]}, "type": "Feature", "id": null, "properties": {"z_order": 0, "municipality": "Valbrembo", "name": "Vicolo Lupi", "highway": "footway", "osm_id": 199240128}}]}, "municipality": "Valbrembo"}]